{"type":"FeatureCollection","features":[{"type":"Feature","properties":{},"geometry":{"type":"MultiLineString","coordinates":[[[135.12147,34.27489],[135.12083,34.2738],[135.11726,34.27305],[135.11554,34.27408],[135.1139,34.27437],[135.11183,34.27333],[135.11163,34.27182],[135.11033,34.27273],[135.1103,34.27379],[135.10859,34.27598],[135.10858,34.27741],[135.10736,34.27846],[135.10745,34.27966],[135.10907,34.28267],[135.10864,34.28399],[135.10546,34.28462],[135.10306,34.28628],[135.10139,34.28581],[135.10126,34.28687],[135.09864,34.28922],[135.09978,34.29268],[135.09915,34.29456],[135.09782,34.29577],[135.09709,34.29582],[135.09676,34.29664],[135.09842,34.29882],[135.10007,34.29944],[135.10031,34.30044],[135.10341,34.30209],[135.10463,34.30426],[135.10641,34.3058],[135.10607,34.3086],[135.10474,34.30897],[135.1047,34.30975],[135.10337,34.30982],[135.10353,34.31114],[135.1006,34.30936],[135.09973,34.30943],[135.09817,34.30878],[135.0977,34.30788],[135.09708,34.30794],[135.09284,34.31201],[135.09348,34.31201],[135.0942,34.31297],[135.09349,34.31365],[135.09312,34.31375],[135.09363,34.31366],[135.09417,34.31314],[135.0946,34.3139],[135.09201,34.3146],[135.09195,34.3139],[135.09202,34.31501],[135.09418,34.31543],[135.09584,34.31435],[135.09816,34.31456],[135.09928,34.31528],[135.09948,34.31633],[135.10206,34.31978],[135.106,34.32055],[135.10857,34.32156],[135.11338,34.322],[135.11604,34.32282],[135.11713,34.32229],[135.11801,34.32289],[135.11728,34.32229],[135.11796,34.32187],[135.11776,34.32158],[135.11851,34.32144],[135.11933,34.3217],[135.11844,34.32248],[135.11933,34.32177],[135.11987,34.3222],[135.11921,34.32321],[135.11968,34.3226],[135.12039,34.32297],[135.12014,34.32335],[135.12132,34.3218],[135.12115,34.32141],[135.12266,34.31992],[135.12287,34.32056],[135.12125,34.32232],[135.12184,34.32285],[135.1211,34.32292],[135.12105,34.32372],[135.12054,34.32368],[135.12471,34.32536],[135.12738,34.3244],[135.13056,34.32617],[135.13311,34.32323],[135.12987,34.32129],[135.13014,34.32048],[135.13405,34.31902],[135.13515,34.32044],[135.1346,34.3192],[135.13914,34.31864],[135.14124,34.31966],[135.14137,34.32033],[135.14147,34.32038],[135.14132,34.31962],[135.13937,34.31874],[135.14015,34.3177],[135.14143,34.31828],[135.14256,34.31969],[135.14296,34.31917],[135.14376,34.31921],[135.14324,34.32098],[135.14209,34.32106],[135.14326,34.32103],[135.14331,34.32095],[135.14539,34.32189],[135.1453,34.32312],[135.14576,34.32355],[135.14546,34.32198],[135.14814,34.32333],[135.14762,34.32396],[135.14726,34.32369],[135.14609,34.32303],[135.1476,34.32398],[135.14648,34.32534],[135.14501,34.32458],[135.14737,34.32596],[135.14918,34.32608],[135.15067,34.32843],[135.15126,34.3283],[135.15268,34.32992],[135.1526,34.33072],[135.15342,34.33136],[135.15534,34.33138],[135.1569,34.33199],[135.15792,34.3315],[135.15869,34.33145],[135.15917,34.33169],[135.15877,34.33143],[135.16033,34.33099],[135.16304,34.33133],[135.16299,34.33173],[135.16308,34.33134],[135.16382,34.33151],[135.16392,34.33202],[135.16419,34.33169],[135.16497,34.33214],[135.16469,34.33248],[135.16501,34.33214],[135.16561,34.33254],[135.16549,34.33304],[135.16581,34.33274],[135.1663,34.33304],[135.16626,34.33362],[135.16691,34.33356],[135.16735,34.33403],[135.16703,34.33431],[135.16737,34.33406],[135.16777,34.33441],[135.16793,34.33509],[135.16881,34.33564],[135.16878,34.33647],[135.17035,34.33718],[135.16921,34.33661],[135.1699,34.33585],[135.17148,34.33657],[135.17125,34.33692],[135.17061,34.33673],[135.17125,34.33697],[135.17176,34.33648],[135.16991,34.3354],[135.17094,34.33505],[135.17284,34.33617],[135.17205,34.3369],[135.17157,34.33769],[135.17092,34.33744],[135.1716,34.33774],[135.17275,34.33641],[135.1732,34.33649],[135.17354,34.33703],[135.17625,34.33764],[135.1801,34.34072],[135.18031,34.34071],[135.1815,34.34025],[135.18253,34.3396],[135.18337,34.33877],[135.18148,34.34022],[135.18005,34.34055],[135.17833,34.33912],[135.17904,34.33852],[135.17828,34.33908],[135.17674,34.33754],[135.17794,34.3368],[135.17898,34.33764],[135.17844,34.3382],[135.17908,34.33765],[135.17955,34.33811],[135.1804,34.33747],[135.18212,34.33891],[135.18219,34.33878],[135.1804,34.3373],[135.1796,34.33799],[135.17808,34.33667],[135.18035,34.33626],[135.18057,34.33668],[135.18267,34.33619],[135.18314,34.33716],[135.18301,34.33644],[135.18697,34.33666],[135.18692,34.33749],[135.18702,34.33666],[135.18931,34.33707],[135.18917,34.33759],[135.18951,34.33709],[135.19096,34.33733],[135.19233,34.33856],[135.19259,34.33836],[135.19193,34.33816],[135.19215,34.33746],[135.19249,34.33794],[135.19274,34.33773],[135.19348,34.33793],[135.19338,34.33824],[135.19549,34.33863],[135.19521,34.33917],[135.19445,34.33894],[135.19522,34.33939],[135.19674,34.33906],[135.19636,34.33958],[135.1979,34.33993],[135.19814,34.34012],[135.1977,34.3405],[135.19781,34.3406],[135.19875,34.33997],[135.19812,34.34076],[135.19866,34.34013],[135.19915,34.34033],[135.20274,34.3426],[135.20248,34.34309],[135.20364,34.34103],[135.20562,34.34212],[135.20566,34.3428],[135.2068,34.34222],[135.20596,34.34311],[135.20641,34.34373],[135.20884,34.34472],[135.20625,34.34343],[135.20689,34.34225],[135.20754,34.34267],[135.20677,34.34283],[135.2066,34.34323],[135.20765,34.34373],[135.20898,34.34366],[135.20868,34.34419],[135.20881,34.34415],[135.20911,34.3434],[135.21025,34.34393],[135.21172,34.34365],[135.21704,34.34407],[135.22343,34.34754],[135.22794,34.35199],[135.22686,34.35264],[135.22686,34.35295],[135.22788,34.35207],[135.22842,34.35278],[135.22801,34.35292],[135.22879,34.35316],[135.22822,34.35343],[135.22921,34.35325],[135.22938,34.35358],[135.22837,34.35417],[135.22971,34.35623],[135.22985,34.35584],[135.22863,34.35441],[135.22948,34.35391],[135.23004,34.35456],[135.22969,34.35524],[135.23034,34.35485],[135.23061,34.35565],[135.23119,34.3555],[135.23022,34.35586],[135.23109,34.35574],[135.23231,34.3575],[135.23214,34.35804],[135.23271,34.35804],[135.23409,34.35972],[135.23382,34.36017],[135.23422,34.35992],[135.23392,34.36023],[135.23959,34.36568],[135.23909,34.36642],[135.24016,34.36744],[135.24047,34.36891],[135.24102,34.36946],[135.24025,34.36741],[135.23923,34.36642],[135.23981,34.36599],[135.24092,34.36702],[135.24107,34.36782],[135.24104,34.36734],[135.24249,34.36639],[135.24308,34.36671],[135.24104,34.36836],[135.24165,34.36798],[135.24279,34.36838],[135.24303,34.36921],[135.24537,34.37143],[135.24525,34.37199],[135.24651,34.37277],[135.24634,34.37342],[135.24737,34.37418],[135.24716,34.37493],[135.24874,34.37585],[135.24883,34.377],[135.24886,34.37653],[135.24991,34.37701],[135.25172,34.37704],[135.25228,34.37751],[135.25201,34.37771],[135.252,34.37809],[135.2524,34.3775],[135.25933,34.38316],[135.25989,34.38297],[135.25937,34.38309],[135.25694,34.38103],[135.25765,34.38048],[135.25805,34.38085],[135.25765,34.38114],[135.25814,34.38101],[135.25942,34.38225],[135.25891,34.38141],[135.26044,34.38073],[135.26291,34.38057],[135.26288,34.38156],[135.26297,34.38098],[135.26379,34.38108],[135.2644,34.38163],[135.26373,34.38214],[135.26492,34.38215],[135.26725,34.38436],[135.26688,34.38468],[135.26744,34.38441],[135.26855,34.38539],[135.26906,34.38662],[135.26952,34.38633],[135.27014,34.38676],[135.27248,34.38925],[135.27218,34.38978],[135.2741,34.39153],[135.27271,34.3902],[135.2735,34.38958],[135.27454,34.3905],[135.2744,34.39092],[135.27524,34.39019],[135.27559,34.39063],[135.27526,34.39073],[135.2751,34.39087],[135.27574,34.3907],[135.27723,34.3938],[135.27855,34.39359],[135.27959,34.39391],[135.27919,34.39576],[135.27938,34.3951],[135.28104,34.39624],[135.28273,34.39828],[135.28242,34.39888],[135.28716,34.39599],[135.28789,34.39592],[135.28484,34.39972],[135.28682,34.39741],[135.28725,34.39773],[135.28687,34.39735],[135.28774,34.39672],[135.28835,34.39726],[135.2865,34.39855],[135.2879,34.39771],[135.28837,34.39814],[135.28577,34.40025],[135.28592,34.40049],[135.2861,34.40008],[135.28654,34.40075],[135.28574,34.40157],[135.28634,34.40104],[135.28855,34.40314],[135.28876,34.40415],[135.28979,34.40427],[135.292,34.40684],[135.29307,34.40717],[135.29351,34.41402],[135.29459,34.41499],[135.30215,34.41575],[135.31031,34.42304],[135.30644,34.41947],[135.30954,34.41707],[135.31103,34.41839],[135.31075,34.41861],[135.31072,34.41929],[135.31258,34.42095],[135.31087,34.41924],[135.31144,34.41823],[135.31411,34.42019],[135.31342,34.42103],[135.31486,34.4223],[135.31545,34.42213],[135.3149,34.42222],[135.31352,34.42102],[135.31416,34.42024],[135.31604,34.4219],[135.31573,34.42207],[135.31608,34.42193],[135.31642,34.42151],[135.31618,34.4218],[135.31541,34.42111],[135.31602,34.42033],[135.31682,34.42075],[135.31661,34.42118],[135.31714,34.4204],[135.31614,34.42018],[135.31675,34.41941],[135.31808,34.42012],[135.31722,34.42085],[135.31794,34.42035],[135.31839,34.42059],[135.31704,34.42185],[135.31757,34.42214],[135.31868,34.42037],[135.31879,34.42091],[135.319,34.42064],[135.31905,34.42104],[135.31965,34.42094],[135.31893,34.42153],[135.31938,34.42138],[135.31977,34.4219],[135.31888,34.42187],[135.31541,34.42313],[135.31957,34.42203],[135.31963,34.42265],[135.31377,34.42665],[135.31842,34.431],[135.32277,34.42807],[135.32335,34.42868],[135.32342,34.42863],[135.32063,34.4258],[135.3228,34.4244],[135.32353,34.42515],[135.32275,34.42582],[135.32362,34.42524],[135.32546,34.42675],[135.32839,34.42988],[135.32613,34.43141],[135.32446,34.42969],[135.32496,34.43036],[135.32151,34.43227],[135.32232,34.43184],[135.32252,34.43202],[135.32108,34.43314],[135.3249,34.43694],[135.32887,34.43418],[135.3302,34.43524],[135.33052,34.43528],[135.33101,34.4351],[135.32981,34.43479],[135.33094,34.43381],[135.33172,34.43458],[135.3315,34.43488],[135.33203,34.43457],[135.33258,34.43508],[135.33609,34.44155],[135.33406,34.44229],[135.33728,34.44125],[135.33803,34.44187],[135.33807,34.44319],[135.33641,34.44435],[135.33716,34.44576],[135.34352,34.45009],[135.3465,34.44804],[135.34674,34.44826],[135.35022,34.45188],[135.35204,34.45792],[135.35136,34.46278],[135.35214,34.45789],[135.35327,34.45725],[135.35178,34.45194],[135.35344,34.45084],[135.35657,34.45526],[135.35604,34.45556],[135.3608,34.46155],[135.3589,34.46258],[135.35758,34.46093],[135.354,34.4629],[135.35305,34.46235],[135.35291,34.46243],[135.35618,34.46419],[135.36266,34.47234],[135.36495,34.47017],[135.36392,34.47066],[135.36334,34.46994],[135.36429,34.46942],[135.36462,34.46975],[135.36432,34.46938],[135.36332,34.46992],[135.36212,34.4684],[135.36306,34.46789],[135.3641,34.4692],[135.36441,34.469],[135.36209,34.46658],[135.36354,34.46579],[135.36412,34.46651],[135.36324,34.46689],[135.36415,34.46655],[135.36549,34.46824],[135.36507,34.46853],[135.36665,34.46805],[135.3664,34.47113],[135.3671,34.47069],[135.36665,34.47044],[135.3668,34.46789],[135.36719,34.46861],[135.36722,34.46765],[135.36957,34.46744],[135.37017,34.46775],[135.37056,34.46963],[135.37222,34.47167],[135.37131,34.47194],[135.36778,34.47106],[135.36738,34.47296],[135.3638,34.47762],[135.36547,34.47982],[135.36522,34.48007],[135.36553,34.4799],[135.36614,34.4807],[135.37458,34.47588],[135.37354,34.47464],[135.37511,34.47374],[135.37542,34.47412],[135.37509,34.47365],[135.37593,34.47322],[135.37591,34.47399],[135.37638,34.47426],[135.37598,34.47474],[135.3765,34.47475],[135.37502,34.47542],[135.37669,34.47481],[135.37706,34.47522],[135.37622,34.47604],[135.37592,34.47585],[135.37688,34.47863],[135.3718,34.48128],[135.37242,34.48337],[135.37589,34.48239],[135.37737,34.48651],[135.37396,34.48827],[135.37368,34.48748],[135.37393,34.48829],[135.37028,34.49019],[135.36971,34.49012],[135.37026,34.49026],[135.37244,34.49436],[135.3709,34.49563],[135.37084,34.50275],[135.37375,34.50727],[135.37584,34.506],[135.37858,34.50854],[135.37751,34.50934],[135.37865,34.51089],[135.37663,34.51238],[135.37547,34.51087],[135.36716,34.51704],[135.37899,34.53294],[135.37833,34.53189],[135.38078,34.53014],[135.38449,34.51882],[135.38602,34.51747],[135.38174,34.51168],[135.38418,34.50987],[135.38752,34.51437],[135.38906,34.51323],[135.38954,34.51288],[135.38622,34.50836],[135.39009,34.50548],[135.39241,34.50762],[135.39039,34.50913],[135.39269,34.51222],[135.39588,34.51328],[135.3962,34.5129],[135.39586,34.51323],[135.39315,34.51206],[135.39445,34.51096],[135.39647,34.51272],[135.39738,34.51181],[135.39608,34.50972],[135.39702,34.50903],[135.40049,34.51082],[135.39731,34.51394],[135.39852,34.51459],[135.3982,34.51511],[135.40103,34.51676],[135.40204,34.51857],[135.40324,34.51738],[135.40141,34.51414],[135.4026,34.51297],[135.40444,34.51622],[135.40565,34.51506],[135.4038,34.5118],[135.40527,34.51035],[135.40992,34.51362],[135.40648,34.51699],[135.41036,34.52291],[135.41863,34.51927],[135.42977,34.53034],[135.4298,34.53105],[135.42983,34.53047],[135.43028,34.53046],[135.42989,34.52998],[135.4305,34.52968],[135.43159,34.53079],[135.43032,34.53124],[135.43175,34.53085],[135.43215,34.53147],[135.43165,34.53213],[135.43201,34.53187],[135.44215,34.54785],[135.44266,34.55051],[135.44371,34.55113],[135.4442,34.55247],[135.4436,34.55262],[135.44408,34.55394],[135.44285,34.55427],[135.44296,34.55619],[135.4429,34.55437],[135.44386,34.55415],[135.44458,34.55531],[135.44408,34.55545],[135.4447,34.55564],[135.44424,34.55576],[135.44446,34.55639],[135.44372,34.55627],[135.44454,34.55644],[135.44479,34.55722],[135.44045,34.55835],[135.44074,34.5578],[135.44021,34.55794],[135.44038,34.55837],[135.43763,34.5589],[135.4371,34.55961],[135.43276,34.56007],[135.43111,34.56076],[135.41054,34.56075],[135.40924,34.55782],[135.41039,34.5609],[135.40213,34.6],[135.41575,34.59376],[135.41887,34.58055],[135.42082,34.56968],[135.42943,34.5707],[135.42619,34.58962],[135.43376,34.58668],[135.43439,34.58266],[135.44151,34.58295],[135.44382,34.57371],[135.44432,34.57379],[135.44384,34.57364],[135.44463,34.56888],[135.44519,34.56804],[135.44497,34.56701],[135.45237,34.5648],[135.45333,34.56649],[135.44943,34.56805],[135.4514,34.57498],[135.45271,34.57589],[135.45551,34.57582],[135.45541,34.57427],[135.45605,34.57425],[135.45549,34.57424],[135.45545,34.57364],[135.45669,34.57269],[135.45748,34.57382],[135.45667,34.57405],[135.45756,34.57384],[135.45761,34.57572],[135.45635,34.57578],[135.45673,34.57579],[135.45669,34.57641],[135.45267,34.57656],[135.45175,34.57714],[135.45011,34.58373],[135.45338,34.58262],[135.45501,34.58252],[135.45735,34.58253],[135.45858,34.58345],[135.459,34.58338],[135.45923,34.5836],[135.46332,34.58267],[135.46265,34.58272],[135.46364,34.58141],[135.46489,34.5818],[135.46582,34.58291],[135.4656,34.58389],[135.46618,34.58455],[135.46498,34.58495],[135.464,34.58496],[135.46342,34.58447],[135.46429,34.58316],[135.44929,34.58705],[135.4525,34.58998],[135.46233,34.58738],[135.4628,34.588],[135.46263,34.59157],[135.46091,34.59193],[135.4606,34.59486],[135.45972,34.59483],[135.45993,34.59071],[135.45906,34.59006],[135.45177,34.5919],[135.44729,34.59059],[135.44709,34.5901],[135.44577,34.58969],[135.44397,34.58934],[135.44339,34.59047],[135.4377,34.58866],[135.42555,34.59334],[135.42359,34.60503],[135.43092,34.60286],[135.43364,34.60236],[135.43429,34.60292],[135.43332,34.60079],[135.44383,34.59766],[135.44468,34.5975],[135.4454,34.59818],[135.44664,34.60096],[135.44657,34.60186],[135.43697,34.60471],[135.4376,34.60613],[135.4375,34.61077],[135.42341,34.61077],[135.42343,34.61898],[135.42612,34.61798],[135.42662,34.61303],[135.43296,34.61302],[135.43297,34.61501],[135.43019,34.61604],[135.43018,34.61766],[135.43174,34.61754],[135.43162,34.61855],[135.43057,34.61878],[135.43152,34.61877],[135.4315,34.6197],[135.43026,34.61997],[135.43145,34.62017],[135.43136,34.62114],[135.43031,34.62138],[135.43124,34.62135],[135.43099,34.62258],[135.43132,34.62182],[135.43293,34.62222],[135.43273,34.62321],[135.43174,34.62285],[135.43359,34.6236],[135.43424,34.62335],[135.4413,34.62618],[135.44144,34.62544],[135.44304,34.62529],[135.44144,34.62541],[135.44291,34.61812],[135.44479,34.61839],[135.44756,34.61788],[135.44809,34.62181],[135.44714,34.62181],[135.44811,34.62207],[135.44841,34.62451],[135.44752,34.62483],[135.44845,34.6248],[135.44815,34.63071],[135.44837,34.63101],[135.45036,34.63059],[135.45357,34.62922],[135.45267,34.63494],[135.45095,34.63521],[135.45032,34.63513],[135.45021,34.63464],[135.45028,34.63513],[135.44824,34.63488],[135.4471,34.64126],[135.45124,34.64253],[135.45079,34.64533],[135.44992,34.64668],[135.44412,34.64446],[135.44213,34.64543],[135.44568,34.64675],[135.44667,34.64644],[135.44683,34.64678],[135.44411,34.64802],[135.43988,34.64619],[135.43541,34.64805],[135.43889,34.64955],[135.44033,34.64899],[135.4406,34.64949],[135.43759,34.65087],[135.43323,34.64924],[135.42947,34.65081],[135.42921,34.65154],[135.42795,34.65089],[135.42843,34.65086],[135.42917,34.64954],[135.42839,34.65079],[135.427,34.6502],[135.42791,34.64976],[135.42612,34.64992],[135.42554,34.65129],[135.42876,34.65232],[135.42801,34.65489],[135.42338,34.65746],[135.42277,34.65723],[135.42265,34.6569],[135.42306,34.6571],[135.42123,34.6538],[135.42258,34.65677],[135.42079,34.65375],[135.41921,34.65336],[135.42046,34.6602],[135.41808,34.65952],[135.41595,34.65227],[135.41431,34.65167],[135.41646,34.66143],[135.42387,34.66357],[135.42627,34.66782],[135.42588,34.66814],[135.42454,34.66575],[135.41728,34.66371],[135.41693,34.66388],[135.41714,34.66875],[135.41852,34.67061],[135.41667,34.67321],[135.41042,34.67169],[135.40997,34.67073],[135.40773,34.67216],[135.40825,34.67184],[135.40879,34.67236],[135.40933,34.67466],[135.4089,34.67546],[135.40722,34.67484],[135.40677,34.67384],[135.40717,34.67488],[135.41226,34.67676],[135.42226,34.67963],[135.41799,34.68676],[135.41777,34.68805],[135.41365,34.68978],[135.41027,34.69213],[135.40822,34.6966],[135.40729,34.6971],[135.40858,34.69878],[135.41286,34.702],[135.42491,34.70605],[135.4288,34.71063],[135.4311,34.71235],[135.44617,34.71834],[135.44733,34.71967],[135.44811,34.72169],[135.44758,34.72389],[135.44603,34.72691],[135.44556,34.7295],[135.44658,34.73229],[135.44771,34.73362],[135.44899,34.7341],[135.45477,34.73433],[135.4603,34.73314],[135.45849,34.73609],[135.45919,34.73822],[135.4602,34.74773],[135.45919,34.75047],[135.45994,34.751],[135.45925,34.75209],[135.45706,34.75096],[135.45667,34.75167],[135.45582,34.75507],[135.45673,34.75821],[135.45629,34.76035],[135.45446,34.75989],[135.45306,34.75789],[135.45192,34.75818],[135.45007,34.76003],[135.4505,34.7626],[135.4499,34.76496],[135.45041,34.76632],[135.44806,34.76832],[135.4447,34.76853],[135.4445,34.76981],[135.44538,34.77142],[135.4462,34.77707],[135.44543,34.7776],[135.44513,34.78074],[135.44448,34.78212],[135.4438,34.78237],[135.44381,34.78416],[135.44232,34.78448],[135.44277,34.78633],[135.44159,34.78955],[135.44287,34.78931],[135.44232,34.78962],[135.44271,34.79],[135.44128,34.7907],[135.44279,34.79117],[135.44161,34.79196],[135.43848,34.792],[135.43407,34.79659],[135.43405,34.79715],[135.4346,34.79727],[135.43445,34.79824],[135.43324,34.79774],[135.43242,34.79842],[135.43123,34.79849],[135.4299,34.80121],[135.42911,34.80152],[135.42864,34.80318],[135.42761,34.8023],[135.42626,34.8027],[135.42369,34.80207],[135.41895,34.81025],[135.41599,34.81769],[135.41619,34.82046],[135.42197,34.82633],[135.42334,34.82857],[135.4238,34.82995],[135.4236,34.83415],[135.42433,34.83712],[135.42069,34.84682],[135.41688,34.85222],[135.418,34.85231],[135.42035,34.85149],[135.42397,34.85217],[135.42579,34.85352],[135.42784,34.85406],[135.43044,34.85551],[135.43136,34.85642],[135.43156,34.85817],[135.43009,34.86128],[135.43187,34.86324],[135.43272,34.86661],[135.43415,34.86829],[135.43479,34.86996],[135.43395,34.87118],[135.43401,34.87221],[135.43533,34.87464],[135.43703,34.87583],[135.43752,34.87681],[135.437,34.87763],[135.4378,34.88173],[135.43893,34.88369],[135.43888,34.88449],[135.43992,34.88552],[135.43974,34.88636],[135.44094,34.89046],[135.44386,34.89124],[135.44449,34.89292],[135.44404,34.89393],[135.44582,34.89652],[135.44582,34.89721],[135.44516,34.8984],[135.44358,34.89894],[135.43947,34.89602],[135.43802,34.89605],[135.43581,34.89515],[135.4332,34.89188],[135.43074,34.89243],[135.4305,34.89352],[135.4316,34.89434],[135.43244,34.89599],[135.43029,34.89873],[135.42736,34.90437],[135.4272,34.90605],[135.42568,34.90674],[135.42442,34.9064],[135.41997,34.90648],[135.41865,34.90895],[135.4195,34.91002],[135.42364,34.91123],[135.42451,34.91351],[135.42542,34.91423],[135.42747,34.91472],[135.43099,34.91656],[135.43452,34.91677],[135.4393,34.9205],[135.45145,34.9199],[135.45671,34.91791],[135.461,34.91829],[135.46229,34.91792],[135.4636,34.91831],[135.4657,34.91983],[135.46627,34.92121],[135.466,34.92442],[135.46708,34.9252],[135.46852,34.92543],[135.46838,34.92717],[135.46715,34.92879],[135.46361,34.92766],[135.46314,34.92703],[135.46101,34.92627],[135.45712,34.92914],[135.45254,34.92979],[135.45195,34.93045],[135.45219,34.93132],[135.45025,34.93259],[135.44913,34.9345],[135.44764,34.9344],[135.44166,34.93939],[135.43855,34.93694],[135.43514,34.93829],[135.43298,34.93803],[135.43232,34.93702],[135.42858,34.93645],[135.4274,34.93707],[135.4265,34.93689],[135.42535,34.93643],[135.42337,34.93446],[135.42149,34.93387],[135.41848,34.93389],[135.41693,34.93802],[135.41696,34.93888],[135.41784,34.93953],[135.41746,34.94177],[135.41576,34.94079],[135.41028,34.93996],[135.40946,34.94166],[135.4113,34.94189],[135.41212,34.943],[135.41162,34.94424],[135.4091,34.94549],[135.4086,34.94532],[135.41132,34.94393],[135.41069,34.94268],[135.40865,34.94239],[135.40762,34.94352],[135.40579,34.94402],[135.40355,34.94345],[135.39596,34.94444],[135.39453,34.94364],[135.39446,34.94257],[135.39235,34.94137],[135.39051,34.94345],[135.3885,34.94399],[135.3881,34.94538],[135.3872,34.94628],[135.38794,34.94806],[135.38758,34.9509],[135.3863,34.95158],[135.38548,34.95426],[135.38333,34.95453],[135.38263,34.95599],[135.38189,34.95623],[135.37782,34.95522],[135.37593,34.95634],[135.3755,34.9553],[135.37302,34.95349],[135.37102,34.95457],[135.37001,34.95452],[135.3693,34.95575],[135.36767,34.95619],[135.36642,34.95581],[135.36392,34.95624],[135.36217,34.95492],[135.36038,34.95447],[135.35816,34.95592],[135.35781,34.95785],[135.35425,34.96262],[135.35257,34.96329],[135.35071,34.96337],[135.34887,34.96508],[135.34648,34.9645],[135.34507,34.96685],[135.34566,34.96821],[135.34662,34.96863],[135.34669,34.96969],[135.34875,34.97197],[135.34896,34.97418],[135.34852,34.97578],[135.34931,34.97699],[135.34959,34.97898],[135.35055,34.98025],[135.35248,34.97955],[135.35588,34.981],[135.3582,34.98123],[135.35953,34.98252],[135.35812,34.98447],[135.35574,34.98572],[135.35342,34.98846],[135.35256,34.99039],[135.35386,34.99191],[135.35281,34.99376],[135.35369,34.99817],[135.35273,34.99944],[135.35354,35.00092],[135.35151,35.00428],[135.3522,35.00583],[135.35414,35.00604],[135.35471,35.00671],[135.35409,35.00882],[135.35426,35.01118],[135.35337,35.0119],[135.35371,35.0132],[135.3553,35.01414],[135.3551,35.01492],[135.35579,35.01662],[135.35478,35.01868],[135.35538,35.01967],[135.35462,35.02147],[135.3547,35.02479],[135.35259,35.02562],[135.34988,35.0259],[135.34908,35.02693],[135.34632,35.0266],[135.34413,35.02538],[135.3398,35.02588],[135.33817,35.03018],[135.33648,35.03272],[135.33358,35.03516],[135.33105,35.0345],[135.3302,35.03522],[135.33273,35.03731],[135.33374,35.03965],[135.33649,35.04103],[135.33643,35.04189],[135.3379,35.04265],[135.33809,35.0436],[135.33918,35.04369],[135.3398,35.04287],[135.34151,35.04308],[135.34273,35.04373],[135.34336,35.04474],[135.34668,35.0448],[135.34882,35.04594],[135.35006,35.04895],[135.34946,35.05062],[135.34984,35.05114],[135.35234,35.05126],[135.35725,35.04997],[135.35948,35.05011],[135.36197,35.04749],[135.36171,35.04648],[135.36428,35.04579],[135.36694,35.0442],[135.36769,35.04399],[135.37113,35.04529],[135.37598,35.04413],[135.37823,35.04029],[135.38004,35.03911],[135.38056,35.03652],[135.37987,35.03531],[135.38193,35.03183],[135.38205,35.02764],[135.38169,35.02619],[135.3799,35.02526],[135.37931,35.02388],[135.38011,35.02283],[135.37998,35.02212],[135.37765,35.02034],[135.37792,35.01797],[135.3787,35.01636],[135.38057,35.01489],[135.38169,35.01025],[135.38432,35.01038],[135.38552,35.01118],[135.38906,35.01141],[135.39079,35.0099],[135.39399,35.00874],[135.39597,35.00945],[135.39747,35.01064],[135.39931,35.00842],[135.40325,35.00669],[135.40753,35.0098],[135.40805,35.01068],[135.40977,35.01153],[135.41179,35.00953],[135.4141,35.00848],[135.41503,35.00694],[135.4165,35.00595],[135.41834,35.00293],[135.42101,35.00216],[135.42282,35.00211],[135.42542,35.00385],[135.42775,35.00441],[135.42858,35.00538],[135.43349,35.00792],[135.43619,35.00841],[135.43893,35.00754],[135.44018,35.00769],[135.44202,35.00675],[135.44267,35.00574],[135.44605,35.00513],[135.44679,35.00545],[135.44815,35.00482],[135.45197,35.00175],[135.45243,35.0023],[135.45449,35.00186],[135.45516,35.00238],[135.45757,35.00156],[135.45987,35.00159],[135.46345,34.99902],[135.46462,34.99877],[135.46637,34.9973],[135.46782,34.99712],[135.46858,34.99613],[135.47122,34.9948],[135.47696,34.99416],[135.47935,34.99499],[135.48189,34.99515],[135.48298,34.99277],[135.48692,34.99251],[135.48891,34.99002],[135.49088,34.98933],[135.49261,34.98934],[135.4936,34.98852],[135.49306,34.98767],[135.49073,34.98643],[135.48748,34.98577],[135.48316,34.98187],[135.48422,34.98082],[135.48438,34.97852],[135.48542,34.97826],[135.48588,34.97687],[135.48741,34.97544],[135.48673,34.97327],[135.48749,34.97123],[135.48745,34.96913],[135.48826,34.96729],[135.49045,34.96825],[135.49092,34.96802],[135.48994,34.96689],[135.48846,34.96657],[135.48708,34.96438],[135.48625,34.96392],[135.48558,34.96412],[135.48725,34.96628],[135.48712,34.96677],[135.48532,34.96638],[135.48371,34.96474],[135.48194,34.96523],[135.48117,34.9624],[135.48319,34.96053],[135.48445,34.96044],[135.48428,34.95957],[135.48534,34.95734],[135.48733,34.95717],[135.48575,34.95633],[135.48577,34.95557],[135.48443,34.95373],[135.48339,34.95323],[135.48096,34.95054],[135.48114,34.94974],[135.48299,34.94881],[135.48405,34.94767],[135.4885,34.94629],[135.49042,34.94179],[135.49266,34.94169],[135.49436,34.94085],[135.4979,34.94072],[135.49967,34.94134],[135.50215,34.94333],[135.5042,34.9464],[135.50625,34.94569],[135.50767,34.9446],[135.50936,34.9446],[135.5108,34.9438],[135.51459,34.94412],[135.51508,34.94177],[135.51502,34.94103],[135.51445,34.94068],[135.51507,34.93946],[135.51502,34.93692],[135.51727,34.93348],[135.52114,34.93354],[135.52256,34.93028],[135.52499,34.9289],[135.52703,34.92883],[135.52794,34.92804],[135.53026,34.92725],[135.53358,34.92708],[135.5341,34.92645],[135.53815,34.9254],[135.5382,34.92493],[135.53694,34.92368],[135.53607,34.92047],[135.53717,34.91905],[135.53843,34.91872],[135.54131,34.91523],[135.54317,34.91592],[135.54415,34.91746],[135.54618,34.91659],[135.54853,34.91677],[135.54947,34.91855],[135.55082,34.91827],[135.55341,34.91554],[135.55756,34.9174],[135.56083,34.91792],[135.56274,34.91779],[135.56721,34.91629],[135.57096,34.91673],[135.57245,34.91641],[135.57364,34.91738],[135.57398,34.91834],[135.57571,34.91958],[135.58126,34.92245],[135.5805,34.92454],[135.58158,34.92732],[135.5806,34.93015],[135.58174,34.93556],[135.58105,34.93704],[135.57787,34.93782],[135.57646,34.93877],[135.5718,34.93906],[135.569,34.9368],[135.56726,34.93672],[135.5673,34.93549],[135.56468,34.93302],[135.5628,34.93342],[135.56301,34.93447],[135.56556,34.93741],[135.56602,34.94013],[135.56486,34.94068],[135.56471,34.94236],[135.56308,34.94219],[135.56239,34.9416],[135.56202,34.938],[135.55992,34.93699],[135.55867,34.93531],[135.55955,34.93393],[135.55889,34.93285],[135.55815,34.93283],[135.55733,34.93469],[135.55862,34.93722],[135.55719,34.93869],[135.55919,34.94036],[135.55974,34.94222],[135.56238,34.94376],[135.56118,34.94645],[135.56264,34.94901],[135.56209,34.95063],[135.5631,34.95181],[135.56313,34.95366],[135.56423,34.95375],[135.56641,34.95288],[135.56748,34.95437],[135.56846,34.95475],[135.56981,34.95434],[135.57159,34.95509],[135.57417,34.95477],[135.57493,34.95538],[135.57644,34.95568],[135.57757,34.95537],[135.57858,34.95589],[135.57896,34.95834],[135.57829,34.96059],[135.57361,34.96095],[135.57123,34.96392],[135.57093,34.96979],[135.57206,34.96992],[135.57159,34.97027],[135.57273,34.97124],[135.57493,34.97188],[135.5766,34.97375],[135.58031,34.97435],[135.58255,34.97676],[135.58477,34.97609],[135.58467,34.97514],[135.58568,34.97424],[135.58558,34.97334],[135.58684,34.97123],[135.58673,34.97062],[135.58849,34.96913],[135.58924,34.96722],[135.59074,34.96737],[135.59236,34.96604],[135.59415,34.96936],[135.59476,34.96971],[135.59579,34.96888],[135.59738,34.9691],[135.59804,34.96963],[135.60347,34.97121],[135.60383,34.97024],[135.60543,34.96991],[135.60708,34.97061],[135.60764,34.96933],[135.61067,34.97088],[135.61326,34.9712],[135.61377,34.96732],[135.61541,34.96621],[135.61567,34.9628],[135.61778,34.961],[135.61871,34.95814],[135.61789,34.95744],[135.61653,34.9576],[135.61711,34.95573],[135.61518,34.95369],[135.61612,34.95279],[135.61478,34.95237],[135.61537,34.95134],[135.61481,34.95034],[135.61404,34.95015],[135.61409,34.94832],[135.61263,34.94669],[135.61386,34.94643],[135.61397,34.94597],[135.61254,34.94519],[135.61152,34.9439],[135.61315,34.9417],[135.611,34.94219],[135.6108,34.93974],[135.61032,34.93936],[135.60925,34.93989],[135.6085,34.93958],[135.60807,34.93822],[135.60698,34.93768],[135.60768,34.9366],[135.6062,34.93504],[135.60571,34.93498],[135.60533,34.93614],[135.60344,34.93603],[135.60392,34.93515],[135.6032,34.93495],[135.60204,34.93353],[135.60193,34.93251],[135.60044,34.93082],[135.60111,34.92972],[135.59932,34.92829],[135.60346,34.92726],[135.60554,34.92741],[135.60783,34.92837],[135.60926,34.92812],[135.61164,34.92847],[135.6152,34.92762],[135.61712,34.92874],[135.61783,34.93051],[135.61886,34.93119],[135.61911,34.93196],[135.6225,34.93351],[135.62375,34.93491],[135.62758,34.93359],[135.62903,34.935],[135.6304,34.93515],[135.63297,34.93462],[135.63439,34.93358],[135.63432,34.93236],[135.63657,34.93104],[135.63848,34.93212],[135.64054,34.93145],[135.64108,34.93072],[135.64277,34.93066],[135.64489,34.92759],[135.64929,34.92535],[135.64931,34.92444],[135.65071,34.92303],[135.65036,34.92124],[135.65082,34.9199],[135.65172,34.91857],[135.65346,34.91785],[135.65351,34.91729],[135.65325,34.91621],[135.65249,34.91706],[135.64825,34.91685],[135.64822,34.91586],[135.64895,34.91493],[135.64825,34.91349],[135.6485,34.90955],[135.65058,34.90952],[135.65172,34.91001],[135.65371,34.90958],[135.65674,34.9067],[135.65886,34.90605],[135.6618,34.90376],[135.66279,34.90413],[135.66262,34.90513],[135.66371,34.90515],[135.66438,34.90425],[135.66391,34.90218],[135.66447,34.90253],[135.66501,34.90414],[135.66562,34.90442],[135.66881,34.90382],[135.67138,34.90238],[135.67303,34.90127],[135.67344,34.90021],[135.6748,34.90013],[135.67577,34.8993],[135.67518,34.89855],[135.67635,34.89793],[135.67514,34.89492],[135.677,34.89519],[135.67713,34.89407],[135.67973,34.8896],[135.68269,34.88784],[135.68113,34.8853],[135.67992,34.88134],[135.6822,34.88054],[135.68352,34.87763],[135.68189,34.87544],[135.68201,34.87315],[135.68255,34.87215],[135.68743,34.86953],[135.68871,34.86899],[135.68952,34.86933],[135.69112,34.86889],[135.69128,34.86596],[135.69193,34.8651],[135.69106,34.86278],[135.69138,34.86138],[135.6932,34.86092],[135.69465,34.86134],[135.69485,34.86089],[135.69148,34.85858],[135.69065,34.85652],[135.69238,34.85527],[135.69172,34.85294],[135.69461,34.85064],[135.69491,34.84828],[135.69541,34.8481],[135.69723,34.84889],[135.69814,34.84965],[135.70149,34.85094],[135.70226,34.85173],[135.7052,34.85104],[135.70615,34.84976],[135.70772,34.84927],[135.70898,34.84732],[135.71017,34.84663],[135.70991,34.84474],[135.71022,34.84417],[135.71117,34.84389],[135.71187,34.84214],[135.71105,34.84134],[135.71217,34.84005],[135.71319,34.84008],[135.71569,34.83786],[135.71577,34.83658],[135.71718,34.83555],[135.71824,34.83323],[135.7177,34.83254],[135.71935,34.83106],[135.71954,34.8297],[135.72062,34.82946],[135.72315,34.82684],[135.72305,34.82514],[135.72417,34.82328],[135.72777,34.82314],[135.73021,34.8222],[135.73108,34.82266],[135.73249,34.82242],[135.73327,34.82083],[135.73509,34.81989],[135.73644,34.81632],[135.73678,34.81368],[135.73772,34.81297],[135.73812,34.8118],[135.73904,34.81161],[135.74097,34.80964],[135.74291,34.80543],[135.74583,34.80398],[135.7466,34.80159],[135.74598,34.79872],[135.74387,34.79588],[135.74337,34.79388],[135.74065,34.7934],[135.73956,34.79139],[135.74078,34.78847],[135.73795,34.78725],[135.73611,34.78457],[135.73391,34.78401],[135.73229,34.78275],[135.73183,34.78162],[135.7309,34.78121],[135.72942,34.77953],[135.72728,34.77623],[135.72645,34.77582],[135.72561,34.77598],[135.72248,34.77463],[135.72072,34.77446],[135.7173,34.77755],[135.71655,34.77929],[135.71563,34.77994],[135.71348,34.78003],[135.71191,34.78136],[135.70964,34.78017],[135.70979,34.77743],[135.70659,34.77245],[135.70726,34.77156],[135.70855,34.77205],[135.71004,34.77151],[135.70863,34.76897],[135.70843,34.76639],[135.70897,34.76475],[135.70888,34.76194],[135.71019,34.76071],[135.70889,34.75897],[135.71019,34.75591],[135.71022,34.75387],[135.70985,34.75313],[135.70798,34.7521],[135.70666,34.74855],[135.70485,34.7486],[135.70206,34.75079],[135.70084,34.7508],[135.69798,34.74966],[135.69778,34.74805],[135.6992,34.74571],[135.69869,34.7448],[135.69709,34.74424],[135.69679,34.7437],[135.69757,34.73966],[135.70009,34.73555],[135.69969,34.73256],[135.7006,34.72982],[135.70274,34.7251],[135.70362,34.72473],[135.70414,34.72378],[135.70195,34.7218],[135.69815,34.72091],[135.69673,34.7189],[135.69324,34.71682],[135.69249,34.71563],[135.68941,34.71374],[135.68761,34.71138],[135.68308,34.71129],[135.68154,34.71046],[135.67969,34.7088],[135.67903,34.70718],[135.67701,34.70484],[135.67302,34.70164],[135.67349,34.70082],[135.67314,34.70008],[135.67413,34.69801],[135.67303,34.69393],[135.6731,34.69015],[135.67599,34.68755],[135.67677,34.68547],[135.6781,34.68441],[135.67794,34.67981],[135.6787,34.67776],[135.67698,34.67594],[135.67626,34.67369],[135.67425,34.67162],[135.67387,34.66974],[135.67105,34.66692],[135.67087,34.66461],[135.67007,34.66292],[135.6712,34.66121],[135.67007,34.65955],[135.66952,34.65728],[135.66814,34.65652],[135.66685,34.65368],[135.66491,34.65272],[135.66432,34.65129],[135.66419,34.65008],[135.66584,34.64903],[135.66538,34.64397],[135.66412,34.64311],[135.664,34.64194],[135.66265,34.64026],[135.66297,34.63593],[135.66229,34.63542],[135.66116,34.63563],[135.6617,34.63438],[135.6634,34.63328],[135.6632,34.62952],[135.66171,34.62825],[135.66104,34.62524],[135.65889,34.62313],[135.65963,34.62246],[135.65962,34.6215],[135.65778,34.61646],[135.6591,34.61482],[135.65832,34.61462],[135.65739,34.61353],[135.65674,34.61159],[135.65322,34.61126],[135.65309,34.61061],[135.65099,34.60995],[135.65012,34.60783],[135.65182,34.60678],[135.65229,34.60395],[135.65322,34.60326],[135.65594,34.60317],[135.66117,34.60191],[135.66918,34.60287],[135.6711,34.60375],[135.67398,34.60211],[135.67569,34.60174],[135.67486,34.59982],[135.67612,34.59865],[135.67645,34.59621],[135.67798,34.59391],[135.67768,34.59234],[135.67822,34.5917],[135.67764,34.59125],[135.67876,34.59149],[135.67915,34.59117],[135.6773,34.58983],[135.67708,34.5892],[135.678,34.58798],[135.68001,34.58751],[135.68062,34.58672],[135.68048,34.58518],[135.68176,34.58478],[135.68066,34.5824],[135.67728,34.5809],[135.67549,34.57959],[135.67154,34.57991],[135.67113,34.57792],[135.67212,34.57716],[135.67069,34.57635],[135.67065,34.5752],[135.67325,34.57184],[135.67299,34.57063],[135.67195,34.57005],[135.66942,34.56976],[135.66452,34.56762],[135.65692,34.56228],[135.65691,34.56178],[135.65758,34.56183],[135.65778,34.56132],[135.65726,34.55642],[135.65436,34.55393],[135.65646,34.5537],[135.6567,34.55197],[135.65577,34.5492],[135.65439,34.54751],[135.65199,34.5463],[135.65028,34.54411],[135.65167,34.54242],[135.65365,34.5414],[135.65493,34.54194],[135.65652,34.54171],[135.65782,34.54323],[135.6595,34.54389],[135.66015,34.54115],[135.65957,34.53885],[135.66162,34.53677],[135.66187,34.53499],[135.66128,34.53333],[135.66229,34.53004],[135.66295,34.52961],[135.66447,34.53016],[135.66626,34.52941],[135.66774,34.53098],[135.66999,34.53065],[135.67256,34.52947],[135.67704,34.52537],[135.6758,34.52232],[135.67735,34.51819],[135.67683,34.51525],[135.67753,34.50974],[135.67594,34.50863],[135.67681,34.50755],[135.67683,34.50666],[135.67532,34.50574],[135.67302,34.50279],[135.67408,34.50171],[135.67585,34.50134],[135.6783,34.4995],[135.67806,34.49813],[135.68003,34.4953],[135.67898,34.49306],[135.68049,34.48896],[135.68206,34.48837],[135.68359,34.48586],[135.68473,34.48542],[135.68426,34.48465],[135.68481,34.4836],[135.68422,34.48267],[135.68306,34.48155],[135.6819,34.48148],[135.68121,34.48024],[135.68207,34.47733],[135.68335,34.47612],[135.68256,34.47173],[135.68325,34.47007],[135.68249,34.46919],[135.6822,34.4677],[135.68248,34.46368],[135.68192,34.46104],[135.6831,34.4571],[135.68241,34.45605],[135.68396,34.45433],[135.68483,34.45419],[135.68595,34.45237],[135.68683,34.45214],[135.68674,34.44876],[135.68486,34.44612],[135.68192,34.44364],[135.68102,34.442],[135.68086,34.43956],[135.68152,34.43791],[135.67898,34.43276],[135.67601,34.42988],[135.67401,34.42876],[135.67231,34.42593],[135.66879,34.4268],[135.66429,34.42323],[135.66624,34.4223],[135.6666,34.41966],[135.66613,34.41865],[135.66692,34.41848],[135.6672,34.4165],[135.66813,34.41589],[135.66942,34.41368],[135.6731,34.41257],[135.67556,34.41374],[135.67731,34.41383],[135.67792,34.41306],[135.67778,34.41147],[135.68009,34.4092],[135.67964,34.40775],[135.67818,34.40732],[135.67604,34.40558],[135.67604,34.40363],[135.67661,34.40227],[135.6761,34.40002],[135.67498,34.39919],[135.67037,34.39845],[135.66921,34.39777],[135.66727,34.39778],[135.66591,34.39706],[135.66384,34.3973],[135.66265,34.39329],[135.66115,34.39192],[135.65968,34.39149],[135.65944,34.39016],[135.65787,34.3875],[135.65383,34.38335],[135.6508,34.38322],[135.64892,34.3837],[135.64562,34.38343],[135.64379,34.38389],[135.63898,34.38347],[135.63896,34.38216],[135.63636,34.38149],[135.63171,34.3831],[135.62939,34.38311],[135.62612,34.38381],[135.62542,34.38307],[135.62152,34.38437],[135.61991,34.38448],[135.61779,34.38327],[135.61753,34.38183],[135.61545,34.37807],[135.6137,34.37663],[135.60744,34.37767],[135.60434,34.37729],[135.60205,34.37828],[135.60137,34.38008],[135.59768,34.3804],[135.59586,34.37907],[135.5961,34.37714],[135.59499,34.37538],[135.59314,34.37483],[135.5917,34.37538],[135.59088,34.37514],[135.59037,34.37556],[135.58997,34.37514],[135.58838,34.37563],[135.58643,34.37535],[135.58304,34.37695],[135.57848,34.37587],[135.57712,34.37605],[135.57602,34.37505],[135.57549,34.37377],[135.57379,34.37359],[135.57276,34.37206],[135.56968,34.37096],[135.56688,34.37176],[135.56665,34.37048],[135.56466,34.37011],[135.5634,34.36933],[135.56114,34.36574],[135.55937,34.36474],[135.55689,34.36195],[135.55659,34.36103],[135.55467,34.35953],[135.55321,34.35931],[135.55159,34.35967],[135.55061,34.35824],[135.54736,34.35657],[135.54578,34.35689],[135.54345,34.35655],[135.54146,34.35763],[135.5397,34.35751],[135.53453,34.3521],[135.53152,34.35108],[135.53063,34.35148],[135.52724,34.35123],[135.5258,34.35041],[135.52365,34.34845],[135.52147,34.3455],[135.51993,34.34524],[135.5194,34.34422],[135.51204,34.33833],[135.50782,34.3365],[135.50365,34.33646],[135.50235,34.33809],[135.50442,34.3394],[135.5049,34.34122],[135.50234,34.34509],[135.50364,34.34669],[135.50175,34.3502],[135.4988,34.35033],[135.49782,34.35231],[135.49454,34.35357],[135.49319,34.35458],[135.48992,34.35535],[135.48846,34.35665],[135.48735,34.35967],[135.48538,34.36283],[135.48161,34.36002],[135.48146,34.35925],[135.47929,34.35812],[135.47726,34.35543],[135.47779,34.3539],[135.47748,34.35329],[135.47466,34.35286],[135.47324,34.35327],[135.47223,34.35281],[135.47009,34.35047],[135.46735,34.34973],[135.46571,34.34733],[135.46324,34.34828],[135.46218,34.34776],[135.45759,34.34734],[135.45585,34.3478],[135.45505,34.34905],[135.45342,34.34986],[135.45182,34.34911],[135.45061,34.34955],[135.44879,34.34919],[135.44763,34.34942],[135.44491,34.34793],[135.44175,34.34738],[135.44057,34.34791],[135.43696,34.34803],[135.43545,34.34867],[135.43063,34.34696],[135.42887,34.34572],[135.42801,34.3444],[135.42831,34.34349],[135.42689,34.34101],[135.42492,34.33998],[135.4235,34.34035],[135.4215,34.33977],[135.41856,34.34031],[135.41658,34.33978],[135.41542,34.33996],[135.41243,34.34195],[135.40897,34.34184],[135.40832,34.34011],[135.40693,34.33877],[135.40677,34.33547],[135.40557,34.33388],[135.40411,34.3341],[135.40288,34.33373],[135.40192,34.33272],[135.39914,34.3325],[135.39705,34.33039],[135.39445,34.33081],[135.39113,34.33301],[135.38806,34.33227],[135.38678,34.32912],[135.38292,34.32944],[135.38034,34.32844],[135.3755,34.33103],[135.37136,34.33015],[135.36822,34.33116],[135.36698,34.33071],[135.36631,34.32971],[135.36348,34.32978],[135.36253,34.32894],[135.36171,34.32935],[135.36025,34.33188],[135.35898,34.33304],[135.35758,34.33337],[135.35623,34.33303],[135.35554,34.33342],[135.35387,34.33198],[135.35254,34.33223],[135.34936,34.33175],[135.348,34.33096],[135.3459,34.33053],[135.3422,34.33511],[135.3402,34.33529],[135.33889,34.33496],[135.33824,34.33528],[135.33753,34.33497],[135.33872,34.33404],[135.33949,34.33196],[135.33914,34.32943],[135.33444,34.32561],[135.33265,34.32574],[135.33025,34.32525],[135.3279,34.32375],[135.32854,34.32144],[135.3305,34.31954],[135.33013,34.31839],[135.33051,34.31675],[135.3281,34.31861],[135.3242,34.31913],[135.31967,34.31656],[135.31666,34.31546],[135.3141,34.31508],[135.31316,34.31409],[135.31135,34.31358],[135.30915,34.31332],[135.3076,34.31445],[135.30397,34.31371],[135.30461,34.31064],[135.30277,34.30646],[135.30254,34.30466],[135.30155,34.30446],[135.30084,34.30262],[135.29857,34.3027],[135.29755,34.30078],[135.296,34.30136],[135.29577,34.3003],[135.29478,34.30049],[135.29349,34.29988],[135.29337,34.29929],[135.29138,34.29976],[135.28788,34.3049],[135.28783,34.30606],[135.28698,34.30675],[135.28593,34.3104],[135.28661,34.31228],[135.28631,34.31337],[135.28462,34.31617],[135.28281,34.31791],[135.2809,34.3164],[135.2772,34.31551],[135.27649,34.31423],[135.27375,34.31325],[135.27228,34.31198],[135.27163,34.31243],[135.26588,34.31265],[135.26431,34.31321],[135.26167,34.31254],[135.25792,34.31568],[135.25424,34.31575],[135.25245,34.31484],[135.24896,34.31437],[135.24821,34.31305],[135.2466,34.31329],[135.24593,34.31181],[135.24374,34.31006],[135.24282,34.30986],[135.24131,34.30832],[135.23628,34.30548],[135.23552,34.30364],[135.22501,34.30086],[135.223,34.30299],[135.21966,34.30496],[135.21578,34.30505],[135.21291,34.30628],[135.21124,34.30651],[135.20928,34.30803],[135.20804,34.3082],[135.20846,34.30719],[135.20847,34.30282],[135.20632,34.30083],[135.20521,34.30038],[135.20431,34.29794],[135.20491,34.29615],[135.20436,34.29055],[135.20518,34.28835],[135.20277,34.2876],[135.20157,34.28825],[135.19981,34.28747],[135.19871,34.28806],[135.19637,34.28602],[135.19392,34.287],[135.1918,34.2866],[135.18967,34.28283],[135.18781,34.28322],[135.18489,34.28112],[135.18432,34.27883],[135.18319,34.27882],[135.18034,34.2799],[135.17863,34.27889],[135.17693,34.27972],[135.17178,34.28061],[135.17016,34.27991],[135.1695,34.28023],[135.16685,34.27993],[135.1655,34.27875],[135.16328,34.27861],[135.16094,34.27745],[135.16028,34.27794],[135.1587,34.27702],[135.15741,34.27708],[135.1536,34.27426],[135.15231,34.2747],[135.15323,34.27523],[135.154,34.27657],[135.15335,34.279],[135.1548,34.28104],[135.15377,34.2814],[135.15325,34.2824],[135.1509,34.28226],[135.1489,34.28297],[135.14796,34.28386],[135.14676,34.28381],[135.14338,34.28041],[135.14103,34.28201],[135.13964,34.28189],[135.13905,34.28063],[135.13955,34.28024],[135.1394,34.27938],[135.13858,34.27861],[135.13832,34.27681],[135.13773,34.27625],[135.13749,34.27514],[135.13793,34.27459],[135.13662,34.27351],[135.13209,34.27235],[135.1312,34.27249],[135.12899,34.27479],[135.12878,34.27598],[135.12645,34.2767],[135.12583,34.27745],[135.12347,34.27627],[135.12261,34.27479],[135.12147,34.27489]],[[135.09174,34.31311],[135.09179,34.31284],[135.09177,34.31282],[135.0917,34.31299],[135.09174,34.31311]],[[135.09196,34.3133],[135.09191,34.31324],[135.09189,34.31325],[135.09196,34.3133]],[[135.09133,34.3139],[135.09137,34.31341],[135.09156,34.31318],[135.0913,34.31339],[135.09133,34.3139]],[[135.09302,34.3135],[135.09334,34.31364],[135.09336,34.3136],[135.09302,34.3135]],[[135.13794,34.32121],[135.1379,34.3216],[135.13905,34.32216],[135.13802,34.32153],[135.13794,34.32121]],[[135.14497,34.32285],[135.14419,34.32459],[135.14471,34.32517],[135.14427,34.32458],[135.14497,34.32285]],[[135.11909,34.32339],[135.11858,34.32423],[135.11953,34.32468],[135.11972,34.3244],[135.11869,34.32421],[135.11909,34.32339]],[[135.15916,34.3314],[135.15927,34.3315],[135.15918,34.33137],[135.15916,34.3314]],[[135.15863,34.33172],[135.15877,34.33158],[135.15852,34.3316],[135.15863,34.33172]],[[135.17272,34.3368],[135.17256,34.33674],[135.17268,34.33683],[135.17272,34.3368]],[[135.18542,34.33767],[135.18519,34.33771],[135.18541,34.33773],[135.18542,34.33767]],[[135.17,34.33763],[135.17067,34.33801],[135.17102,34.33771],[135.17066,34.33792],[135.17,34.33763]],[[135.19316,34.33799],[135.19271,34.33802],[135.19314,34.33812],[135.19316,34.33799]],[[135.19326,34.33868],[135.19331,34.33893],[135.19343,34.33875],[135.19326,34.33868]],[[135.19389,34.33918],[135.19406,34.3388],[135.19354,34.33881],[135.19344,34.339],[135.19389,34.33918]],[[135.19561,34.3399],[135.19577,34.34002],[135.19579,34.33999],[135.19561,34.3399]],[[135.1969,34.34052],[135.1967,34.34047],[135.19688,34.34056],[135.1969,34.34052]],[[135.19869,34.34146],[135.19848,34.3414],[135.19866,34.3415],[135.19869,34.34146]],[[135.19924,34.34182],[135.19909,34.34169],[135.19906,34.34172],[135.19924,34.34182]],[[135.19986,34.34212],[135.20001,34.34226],[135.20004,34.34222],[135.19986,34.34212]],[[135.20081,34.34265],[135.20105,34.34284],[135.20108,34.3428],[135.20081,34.34265]],[[135.20181,34.34321],[135.20161,34.34315],[135.20178,34.34325],[135.20181,34.34321]],[[135.20216,34.3434],[135.20241,34.34358],[135.20244,34.34354],[135.20216,34.3434]],[[135.22704,34.35305],[135.22722,34.35329],[135.22724,34.35328],[135.22704,34.35305]],[[135.22963,34.35796],[135.23073,34.35942],[135.23077,34.3594],[135.22963,34.35796]],[[135.23171,34.36065],[135.23109,34.35981],[135.23248,34.36165],[135.23171,34.36065]],[[135.31273,34.4216],[135.31198,34.42124],[135.31301,34.42195],[135.31357,34.42125],[135.31273,34.4216]],[[135.21912,34.42222],[135.22753,34.42788],[135.22694,34.42851],[135.22767,34.42797],[135.23046,34.42983],[135.22943,34.43088],[135.22865,34.43095],[135.22631,34.42938],[135.2268,34.42866],[135.22154,34.43343],[135.2062,34.4231],[135.20903,34.42009],[135.2012,34.42811],[135.20484,34.43054],[135.2081,34.43181],[135.22933,34.44605],[135.23578,34.45039],[135.23794,34.45278],[135.24158,34.45522],[135.24546,34.45127],[135.25443,34.45118],[135.25535,34.45023],[135.25435,34.45098],[135.2509,34.44874],[135.25261,34.44707],[135.25371,34.44776],[135.23214,34.43329],[135.23206,34.43266],[135.23309,34.43161],[135.25433,34.44587],[135.25479,34.4461],[135.25522,34.44621],[135.25559,34.44626],[135.25597,34.44625],[135.25634,34.44619],[135.2567,34.44609],[135.25729,34.44577],[135.25786,34.44521],[135.25671,34.44606],[135.25526,34.4462],[135.25183,34.44415],[135.25957,34.44346],[135.26513,34.4378],[135.26422,34.43684],[135.26326,34.43736],[135.26019,34.4353],[135.25652,34.43376],[135.25225,34.4309],[135.25214,34.42995],[135.25079,34.42991],[135.23564,34.41974],[135.23127,34.41588],[135.22769,34.41348],[135.21912,34.42222]],[[135.31362,34.42252],[135.31457,34.42326],[135.31367,34.42248],[135.31362,34.42252]],[[135.3178,34.43579],[135.3154,34.43341],[135.31684,34.43108],[135.31528,34.43341],[135.3178,34.43579]],[[135.25954,34.44346],[135.2589,34.44415],[135.25956,34.44348],[135.25954,34.44346]],[[135.32516,34.43021],[135.32527,34.43025],[135.32523,34.43018],[135.32516,34.43021]],[[135.32707,34.44843],[135.34079,34.46693],[135.33897,34.46927],[135.33901,34.47559],[135.33907,34.4693],[135.34721,34.45869],[135.34597,34.45469],[135.3423,34.45097],[135.333,34.44472],[135.33207,34.44497],[135.3328,34.44534],[135.3326,34.44608],[135.33118,34.44751],[135.32979,34.44775],[135.32976,34.44684],[135.32916,34.44716],[135.33039,34.44841],[135.32828,34.44994],[135.32719,34.44846],[135.32865,34.44744],[135.32707,34.44843]],[[135.36401,34.46853],[135.36379,34.46822],[135.36377,34.46823],[135.36401,34.46853]],[[135.36752,34.47092],[135.36693,34.47141],[135.36708,34.47149],[135.36752,34.47092]],[[135.3491,34.46807],[135.35163,34.46895],[135.35027,34.47158],[135.351,34.47234],[135.35156,34.47195],[135.35136,34.47344],[135.35197,34.47442],[135.35056,34.47583],[135.35305,34.47924],[135.35254,34.47969],[135.34555,34.4712],[135.35474,34.48271],[135.35473,34.489],[135.35486,34.489],[135.35484,34.48271],[135.35594,34.48263],[135.35481,34.48264],[135.35295,34.48017],[135.35963,34.47369],[135.36115,34.47646],[135.36107,34.47775],[135.36086,34.47758],[135.36076,34.47757],[135.36028,34.47781],[135.36104,34.4778],[135.36061,34.479],[135.3609,34.48011],[135.36008,34.48042],[135.36003,34.47812],[135.35995,34.48052],[135.36102,34.48039],[135.3598,34.4844],[135.35925,34.48458],[135.35858,34.48592],[135.35718,34.48667],[135.35813,34.48641],[135.3598,34.48461],[135.36057,34.48293],[135.36115,34.48042],[135.36119,34.47581],[135.36052,34.47446],[135.35487,34.46742],[135.35106,34.46563],[135.3478,34.46952],[135.3491,34.46807]],[[135.36899,34.47931],[135.36952,34.47905],[135.3695,34.47903],[135.36899,34.47931]],[[135.37256,34.48363],[135.37302,34.48531],[135.37306,34.4853],[135.37256,34.48363]],[[135.36426,34.48356],[135.36685,34.49235],[135.36698,34.49233],[135.36435,34.48368],[135.3647,34.48015],[135.36426,34.48356]],[[135.3731,34.48558],[135.37364,34.4872],[135.37314,34.48556],[135.3731,34.48558]],[[135.38946,34.52282],[135.38717,34.52493],[135.38836,34.524],[135.39464,34.53249],[135.39647,34.53246],[135.39753,34.53161],[135.40269,34.52556],[135.40043,34.51933],[135.39968,34.5188],[135.39919,34.51884],[135.39939,34.51922],[135.39785,34.51864],[135.39749,34.51818],[135.39727,34.51848],[135.39504,34.51732],[135.39325,34.5191],[135.3965,34.52135],[135.39531,34.52252],[135.39206,34.52026],[135.39065,34.52165],[135.39391,34.5239],[135.39272,34.52508],[135.38946,34.52282]],[[135.39917,34.53649],[135.40944,34.55505],[135.40945,34.55443],[135.41588,34.54999],[135.41133,34.542],[135.42023,34.53798],[135.43066,34.55382],[135.43493,34.5527],[135.43679,34.55553],[135.43736,34.55538],[135.43741,34.5557],[135.43746,34.55536],[135.43863,34.55505],[135.43869,34.5554],[135.43894,34.55534],[135.4387,34.55503],[135.44096,34.55426],[135.44065,34.54825],[135.44015,34.54833],[135.43113,34.53453],[135.42147,34.52481],[135.41771,34.52424],[135.4046,34.53014],[135.40739,34.53504],[135.40439,34.5362],[135.40109,34.53426],[135.39917,34.53649]],[[135.41312,34.5606],[135.41296,34.56057],[135.41296,34.56061],[135.41312,34.5606]],[[135.39519,34.60174],[135.39657,34.59559],[135.39511,34.60169],[135.38793,34.60507],[135.388,34.60517],[135.39519,34.60174]],[[135.4214,34.60116],[135.42081,34.60222],[135.42085,34.60302],[135.42138,34.60368],[135.42258,34.60411],[135.42145,34.60351],[135.42098,34.60266],[135.42134,34.60156],[135.42236,34.6006],[135.4214,34.60116]],[[135.38946,34.62835],[135.3995,34.62069],[135.4022,34.62067],[135.40488,34.6193],[135.40597,34.61972],[135.41843,34.61955],[135.42043,34.61292],[135.41916,34.61266],[135.41916,34.61088],[135.42068,34.61078],[135.41752,34.61079],[135.41702,34.61209],[135.40283,34.61209],[135.40128,34.61073],[135.4027,34.61208],[135.40064,34.61735],[135.40114,34.61842],[135.40022,34.61865],[135.39944,34.62066],[135.38946,34.62835]],[[135.34351,34.62149],[135.34391,34.62265],[135.35584,34.63511],[135.35344,34.63236],[135.35857,34.62764],[135.36509,34.63249],[135.34905,34.62034],[135.35007,34.61942],[135.35133,34.61993],[135.35036,34.61934],[135.35005,34.61937],[135.34931,34.62004],[135.34567,34.61728],[135.34351,34.62149]],[[135.3986,34.63136],[135.39649,34.62868],[135.3985,34.63134],[135.39851,34.6381],[135.3977,34.63875],[135.39851,34.63817],[135.40181,34.63963],[135.4046,34.6395],[135.40532,34.64005],[135.4053,34.64087],[135.41647,34.64482],[135.41735,34.64415],[135.41786,34.64442],[135.42421,34.64265],[135.43243,34.64403],[135.43254,34.64322],[135.43464,34.64309],[135.43841,34.64147],[135.43834,34.64109],[135.4393,34.64121],[135.44186,34.6284],[135.44158,34.62874],[135.4407,34.62794],[135.43364,34.62511],[135.43266,34.62422],[135.43179,34.62442],[135.42213,34.62191],[135.42057,34.62585],[135.41025,34.62595],[135.40748,34.6295],[135.4148,34.63482],[135.41228,34.6372],[135.4045,34.63154],[135.3986,34.63136]],[[135.40483,34.6404],[135.40493,34.63991],[135.40437,34.63983],[135.40424,34.64028],[135.40483,34.6404]],[[135.42917,34.65018],[135.43124,34.64923],[135.42915,34.65014],[135.42917,34.65018]],[[135.3729,34.65208],[135.37963,34.66092],[135.38607,34.65991],[135.37965,34.66089],[135.37947,34.66011],[135.39973,34.65694],[135.40452,34.65372],[135.39275,34.64139],[135.39202,34.64231],[135.37894,34.64319],[135.3729,34.65208]],[[135.42738,34.6543],[135.42802,34.65241],[135.42734,34.65431],[135.42738,34.6543]],[[135.39829,34.65735],[135.39884,34.65724],[135.39877,34.65714],[135.39829,34.65735]],[[135.3992,34.65782],[135.39895,34.65738],[135.39844,34.6576],[135.39871,34.65802],[135.3992,34.65782]],[[135.39992,34.65979],[135.40018,34.66024],[135.40069,34.66001],[135.40042,34.65959],[135.39992,34.65979]],[[135.40028,34.66038],[135.40092,34.66036],[135.40078,34.66016],[135.40028,34.66038]],[[135.38685,34.66268],[135.38826,34.66885],[135.38805,34.66784],[135.40262,34.67318],[135.40939,34.66879],[135.40882,34.6659],[135.41095,34.66565],[135.40978,34.65905],[135.40194,34.66028],[135.402,34.66055],[135.38685,34.66268]],[[135.40578,34.67434],[135.40586,34.67344],[135.40748,34.67233],[135.40578,34.67343],[135.40578,34.67434]],[[135.43898,34.55529],[135.43895,34.55532],[135.43899,34.55532],[135.43898,34.55529]],[[135.43867,34.5554],[135.43862,34.55537],[135.43863,34.5554],[135.43867,34.5554]],[[135.43739,34.5557],[135.43735,34.55568],[135.43736,34.5557],[135.43739,34.5557]],[[135.45893,34.58344],[135.45901,34.58352],[135.45904,34.58347],[135.45893,34.58344]],[[135.44303,34.60278],[135.43892,34.60392],[135.43892,34.60399],[135.44303,34.60278]],[[135.44386,34.62516],[135.44339,34.62525],[135.44387,34.62521],[135.44386,34.62516]],[[135.45006,34.64384],[135.45027,34.64245],[135.45005,34.64385],[135.45006,34.64384]]]}}]}