{"type":"FeatureCollection","features":[{"type":"Feature","properties":{},"geometry":{"type":"MultiPolygon","coordinates":[[[[138.9,35.47],[138.9,35.93],[140.0,35.93],[140.0,35.47],[138.9,35.47]],[[139.75331,35.56282],[139.75313,35.56271],[139.7535,35.5626],[139.75331,35.56282]],[[139.75848,35.56844],[139.76561,35.5649],[139.77379,35.57458],[139.77353,35.57492],[139.76415,35.57515],[139.7638,35.57444],[139.76361,35.57482],[139.76353,35.57451],[139.76173,35.57445],[139.76174,35.57491],[139.76158,35.57445],[139.75761,35.57446],[139.75717,35.57196],[139.75848,35.56844]],[[139.74944,35.59155],[139.74947,35.59147],[139.74961,35.59148],[139.74944,35.59155]],[[139.80848,35.58387],[139.81343,35.57873],[139.81966,35.58213],[139.82271,35.57838],[139.82826,35.58139],[139.82274,35.5785],[139.81974,35.58218],[139.83221,35.58893],[139.82026,35.60749],[139.8056,35.59941],[139.80744,35.59714],[139.80561,35.59616],[139.80378,35.59842],[139.79343,35.5928],[139.80848,35.58387]],[[139.75587,35.57707],[139.76248,35.57716],[139.76403,35.57802],[139.76511,35.57957],[139.76781,35.58152],[139.76912,35.5801],[139.77041,35.58106],[139.76787,35.57872],[139.76653,35.57854],[139.76667,35.57714],[139.78342,35.57706],[139.78514,35.57725],[139.78497,35.57763],[139.7866,35.57965],[139.78733,35.57969],[139.78727,35.57902],[139.78741,35.58006],[139.78704,35.58046],[139.78303,35.58344],[139.78334,35.58372],[139.7829,35.58403],[139.78255,35.58371],[139.78183,35.58443],[139.78402,35.58605],[139.78142,35.58454],[139.7778,35.58716],[139.77853,35.58648],[139.77786,35.58587],[139.77744,35.58616],[139.77783,35.58584],[139.77716,35.58523],[139.77634,35.58583],[139.77557,35.58512],[139.77601,35.58563],[139.77549,35.58518],[139.77289,35.58747],[139.76906,35.58401],[139.77289,35.58752],[139.77377,35.58752],[139.77678,35.59029],[139.76348,35.60872],[139.76388,35.60892],[139.76195,35.61465],[139.76096,35.61509],[139.76025,35.61486],[139.75978,35.6154],[139.76028,35.6158],[139.758,35.61767],[139.75744,35.61767],[139.75745,35.61699],[139.75695,35.61699],[139.75695,35.61751],[139.7569,35.61701],[139.75637,35.61701],[139.75636,35.61766],[139.75302,35.61765],[139.75167,35.60469],[139.749,35.60073],[139.74833,35.59208],[139.74943,35.59213],[139.75018,35.59135],[139.75011,35.58965],[139.74932,35.58913],[139.75407,35.57834],[139.75587,35.57707]],[[139.79149,35.59395],[139.79062,35.59241],[139.7916,35.59396],[139.81894,35.60888],[139.81059,35.61318],[139.7995,35.60705],[139.79855,35.60707],[139.7959,35.60353],[139.79521,35.60151],[139.79413,35.60114],[139.79026,35.59545],[139.79149,35.59395]],[[139.79038,35.60647],[139.79032,35.60644],[139.79041,35.60642],[139.79038,35.60647]],[[139.77281,35.61472],[139.77285,35.61475],[139.77214,35.61555],[139.77281,35.61472]],[[139.75689,35.61768],[139.75689,35.61764],[139.75733,35.61768],[139.75689,35.61768]],[[139.7746,35.61675],[139.77345,35.61613],[139.77462,35.61671],[139.77506,35.61618],[139.77389,35.61555],[139.7751,35.61613],[139.77674,35.61412],[139.77438,35.61279],[139.77678,35.61408],[139.77747,35.6138],[139.77713,35.61362],[139.78691,35.60193],[139.79034,35.60652],[139.79011,35.60681],[139.79263,35.60958],[139.78099,35.62388],[139.78495,35.62635],[139.77701,35.63609],[139.77653,35.63626],[139.77313,35.63441],[139.77136,35.63465],[139.77086,35.63307],[139.77266,35.63257],[139.77322,35.63395],[139.77478,35.63483],[139.77662,35.63306],[139.77717,35.63142],[139.77394,35.6299],[139.77404,35.62937],[139.77217,35.62826],[139.77134,35.62827],[139.77069,35.62746],[139.76932,35.62674],[139.76898,35.62693],[139.76759,35.62579],[139.76766,35.62208],[139.76878,35.62146],[139.76844,35.62119],[139.77063,35.61874],[139.77344,35.62027],[139.77425,35.61927],[139.77317,35.6185],[139.7746,35.61675]],[[139.78529,35.62513],[139.79484,35.61377],[139.79701,35.61718],[139.79742,35.61704],[139.79792,35.61773],[139.78988,35.62762],[139.78529,35.62513]],[[139.75975,35.61935],[139.75923,35.63365],[139.75567,35.63372],[139.75524,35.63363],[139.75401,35.63092],[139.75336,35.62212],[139.75292,35.62214],[139.75287,35.62142],[139.75331,35.6214],[139.75321,35.619],[139.7594,35.61904],[139.75975,35.61935]],[[139.81094,35.62852],[139.81109,35.62751],[139.80725,35.62713],[139.82196,35.62853],[139.82088,35.62845],[139.82076,35.62882],[139.82085,35.62845],[139.81111,35.62751],[139.81094,35.62852]],[[139.77115,35.62838],[139.77129,35.62841],[139.77113,35.62845],[139.77115,35.62838]],[[139.76768,35.62968],[139.7661,35.6273],[139.76647,35.62733],[139.76812,35.62955],[139.76768,35.62968]],[[139.81099,35.62874],[139.81097,35.62873],[139.81102,35.62851],[139.81099,35.62874]],[[139.81374,35.63001],[139.81374,35.63003],[139.81155,35.6298],[139.81374,35.63001]],[[139.5174,35.62988],[139.51705,35.62948],[139.51824,35.62921],[139.51831,35.62957],[139.5174,35.62988]],[[139.81056,35.62971],[139.81057,35.62971],[139.8104,35.63074],[139.81056,35.62971]],[[139.8103,35.633],[139.81091,35.6287],[139.81035,35.633],[139.8103,35.633]],[[139.77046,35.63169],[139.77002,35.6324],[139.76813,35.63012],[139.76856,35.63001],[139.76987,35.63168],[139.77046,35.63169]],[[139.8104,35.63092],[139.8101,35.63298],[139.81038,35.63092],[139.8104,35.63092]],[[139.81343,35.63225],[139.81342,35.63226],[139.81125,35.63204],[139.81343,35.63225]],[[139.81561,35.63246],[139.81561,35.63247],[139.81364,35.63227],[139.81561,35.63246]],[[139.76601,35.63423],[139.76557,35.6332],[139.76724,35.6332],[139.76726,35.63417],[139.76601,35.63423]],[[139.75852,35.6338],[139.75841,35.6338],[139.75852,35.63373],[139.75852,35.6338]],[[139.80998,35.63521],[139.81002,35.63495],[139.81038,35.63298],[139.80998,35.63521]],[[139.80976,35.63522],[139.81005,35.63316],[139.80978,35.63523],[139.80976,35.63522]],[[139.8131,35.63448],[139.81309,35.6345],[139.8109,35.63428],[139.8131,35.63448]],[[139.81529,35.63471],[139.81332,35.63452],[139.81529,35.63469],[139.81529,35.63471]],[[139.81004,35.63523],[139.81003,35.63525],[139.80998,35.63522],[139.81004,35.63523]],[[139.8095,35.63715],[139.80948,35.63715],[139.80973,35.63558],[139.8095,35.63715]],[[139.80992,35.63561],[139.80973,35.63715],[139.8097,35.63717],[139.80992,35.63561]],[[139.81168,35.63662],[139.81167,35.63664],[139.81059,35.63652],[139.81168,35.63662]],[[139.81277,35.63672],[139.81277,35.63674],[139.8119,35.63664],[139.81277,35.63672]],[[139.81387,35.63683],[139.81387,35.63685],[139.81299,35.63674],[139.81387,35.63683]],[[139.81497,35.63693],[139.81497,35.63695],[139.81409,35.63685],[139.81497,35.63693]],[[139.75623,35.63692],[139.75619,35.63693],[139.75621,35.63689],[139.75623,35.63692]],[[139.80943,35.63751],[139.80945,35.63751],[139.80931,35.63836],[139.80943,35.63751]],[[139.80965,35.63753],[139.80989,35.63872],[139.81844,35.63953],[139.8189,35.63927],[139.81845,35.63956],[139.80988,35.63874],[139.80965,35.63753]],[[139.78254,35.63902],[139.79019,35.64343],[139.78984,35.6435],[139.78223,35.63935],[139.78254,35.63902]],[[139.79104,35.64371],[139.79687,35.64703],[139.79646,35.64708],[139.79125,35.64427],[139.79104,35.64371]],[[139.5006,35.57044],[139.50434,35.57161],[139.50561,35.57123],[139.50657,35.57172],[139.50735,35.57377],[139.50689,35.57485],[139.50757,35.57524],[139.5069,35.57582],[139.50546,35.57479],[139.50367,35.5767],[139.50236,35.57706],[139.50226,35.57822],[139.50062,35.57914],[139.49922,35.58097],[139.49741,35.58209],[139.49715,35.5815],[139.4966,35.58156],[139.49532,35.58269],[139.49394,35.58273],[139.49375,35.58416],[139.4931,35.58428],[139.49348,35.58538],[139.49446,35.58624],[139.49361,35.58761],[139.49368,35.58908],[139.49288,35.58914],[139.49193,35.58847],[139.49199,35.58897],[139.49144,35.58892],[139.49119,35.58937],[139.49069,35.58899],[139.48918,35.59014],[139.48823,35.58995],[139.48863,35.59072],[139.48788,35.59095],[139.48712,35.59002],[139.4871,35.59172],[139.48578,35.59191],[139.48512,35.59292],[139.48426,35.59282],[139.48454,35.59416],[139.48318,35.59341],[139.48391,35.5953],[139.48293,35.59487],[139.48189,35.59537],[139.4803,35.59469],[139.48025,35.59539],[139.48078,35.59574],[139.47949,35.59589],[139.47964,35.59509],[139.47802,35.59897],[139.47658,35.59963],[139.47397,35.5997],[139.47106,35.60116],[139.47028,35.60349],[139.46647,35.60673],[139.46667,35.60863],[139.46605,35.6095],[139.46559,35.60954],[139.46504,35.60875],[139.4638,35.60916],[139.46307,35.60803],[139.46063,35.60841],[139.45927,35.60759],[139.45792,35.60748],[139.45515,35.60516],[139.45352,35.60448],[139.45252,35.60672],[139.45287,35.60768],[139.45162,35.60858],[139.45119,35.60979],[139.44928,35.61178],[139.45072,35.61318],[139.45143,35.61507],[139.45241,35.61578],[139.45302,35.61856],[139.45357,35.61809],[139.45516,35.61809],[139.45614,35.619],[139.45704,35.6191],[139.46074,35.62216],[139.46216,35.62488],[139.46278,35.62505],[139.46546,35.62398],[139.46586,35.62238],[139.46759,35.62063],[139.47242,35.61975],[139.47507,35.61998],[139.47547,35.6197],[139.47633,35.61863],[139.47599,35.61762],[139.47674,35.61505],[139.47604,35.61324],[139.47695,35.61302],[139.47815,35.61376],[139.47966,35.61326],[139.48112,35.61023],[139.48326,35.60871],[139.48655,35.60843],[139.48791,35.60769],[139.48929,35.60441],[139.49364,35.60582],[139.49757,35.60487],[139.49974,35.60545],[139.49982,35.60765],[139.49528,35.61325],[139.49436,35.6157],[139.49468,35.61729],[139.4979,35.61832],[139.4994,35.6204],[139.50113,35.62174],[139.50295,35.62219],[139.50342,35.62286],[139.50608,35.62282],[139.50929,35.6241],[139.5104,35.62335],[139.51194,35.62429],[139.51458,35.62473],[139.51608,35.62562],[139.51696,35.62789],[139.5166,35.62959],[139.51727,35.63052],[139.51844,35.6306],[139.519,35.63142],[139.52031,35.63124],[139.52349,35.63239],[139.52339,35.63354],[139.52211,35.63457],[139.52181,35.63644],[139.52118,35.63677],[139.52099,35.63776],[139.52207,35.63753],[139.52307,35.63849],[139.52428,35.64153],[139.52573,35.64265],[139.53089,35.64196],[139.53595,35.63948],[139.54596,35.63742],[139.54623,35.6369],[139.54772,35.63669],[139.54943,35.63437],[139.55743,35.63399],[139.56251,35.63238],[139.56266,35.63139],[139.56616,35.62954],[139.56563,35.6272],[139.56793,35.62684],[139.57112,35.62441],[139.57655,35.62198],[139.57973,35.62206],[139.58499,35.62102],[139.59189,35.61771],[139.5931,35.61757],[139.59662,35.6185],[139.59984,35.61846],[139.60535,35.61557],[139.60684,35.61553],[139.60876,35.61644],[139.60967,35.61641],[139.61219,35.61585],[139.61312,35.61469],[139.61558,35.61333],[139.61852,35.61379],[139.62372,35.61116],[139.62544,35.60941],[139.63185,35.60683],[139.6318,35.60579],[139.63518,35.60346],[139.637,35.60305],[139.63976,35.60022],[139.64877,35.59504],[139.65105,35.59223],[139.65629,35.58973],[139.65864,35.58979],[139.6588,35.58943],[139.66333,35.58987],[139.66449,35.58952],[139.66729,35.58718],[139.66931,35.58472],[139.67126,35.57852],[139.67599,35.56688],[139.67879,35.56299],[139.68155,35.56119],[139.68609,35.55937],[139.68962,35.55729],[139.69136,35.55675],[139.69829,35.55597],[139.70088,35.55489],[139.70374,35.55261],[139.70423,35.55117],[139.70353,35.54941],[139.69845,35.5454],[139.69776,35.54376],[139.69794,35.54145],[139.69883,35.53975],[139.69993,35.53836],[139.70223,35.53703],[139.70479,35.53629],[139.70901,35.53638],[139.7173,35.538],[139.71951,35.53912],[139.72295,35.54187],[139.72656,35.54357],[139.73036,35.54291],[139.73303,35.54101],[139.73429,35.5409],[139.73747,35.54423],[139.7396,35.54516],[139.74678,35.54383],[139.75008,35.54458],[139.75685,35.5445],[139.76808,35.53934],[139.7765,35.53447],[139.77879,35.537],[139.78196,35.53883],[139.78442,35.53538],[139.78522,35.53516],[139.78654,35.5358],[139.78762,35.53431],[139.7949,35.53213],[139.80358,35.53635],[139.80859,35.53827],[139.80918,35.53902],[139.8085,35.54027],[139.80783,35.54059],[139.80396,35.54603],[139.80126,35.5483],[139.80133,35.54888],[139.80075,35.54894],[139.79944,35.5508],[139.79963,35.55119],[139.79922,35.55112],[139.79792,35.55291],[139.79807,35.55347],[139.7976,35.55336],[139.79625,35.55526],[139.7964,35.5559],[139.79584,35.55585],[139.7947,35.55823],[139.79428,35.55809],[139.79303,35.56056],[139.79228,35.56091],[139.79146,35.56295],[139.79084,35.56293],[139.7898,35.56432],[139.78972,35.56524],[139.78921,35.56506],[139.788,35.56675],[139.78799,35.56776],[139.78741,35.56758],[139.78633,35.56911],[139.78653,35.56991],[139.78597,35.5698],[139.78544,35.57056],[139.771,35.56897],[139.76373,35.56046],[139.76102,35.56316],[139.75859,35.56437],[139.75568,35.56273],[139.75495,35.56155],[139.7534,35.56225],[139.75267,35.56321],[139.75296,35.56338],[139.74978,35.56663],[139.75024,35.56738],[139.75601,35.56854],[139.75636,35.56907],[139.75409,35.57448],[139.75234,35.57562],[139.75056,35.57522],[139.74987,35.57619],[139.75009,35.5767],[139.75169,35.57718],[139.7521,35.57896],[139.74785,35.58869],[139.74634,35.59063],[139.74696,35.59219],[139.74772,35.60272],[139.74845,35.60278],[139.75072,35.60647],[139.75161,35.62129],[139.75217,35.62152],[139.75221,35.62212],[139.75168,35.62218],[139.75188,35.62472],[139.75023,35.62456],[139.75028,35.62533],[139.75138,35.62585],[139.75093,35.62578],[139.7509,35.62619],[139.75163,35.62596],[139.75199,35.62634],[139.75263,35.63442],[139.75306,35.63538],[139.75344,35.63527],[139.75307,35.63541],[139.7548,35.63888],[139.75553,35.63905],[139.7567,35.63841],[139.75618,35.63694],[139.75675,35.63839],[139.75875,35.6373],[139.75805,35.63638],[139.75879,35.63728],[139.7596,35.6368],[139.75835,35.63575],[139.75887,35.63592],[139.75965,35.63678],[139.76043,35.63678],[139.76035,35.64498],[139.75908,35.64497],[139.75908,35.64541],[139.76067,35.65095],[139.7613,35.65247],[139.7625,35.65188],[139.76435,35.65591],[139.76721,35.65812],[139.77065,35.65494],[139.76964,35.65426],[139.76809,35.65579],[139.76724,35.65521],[139.76765,35.65108],[139.76836,35.65037],[139.77177,35.65245],[139.77272,35.65145],[139.76949,35.64927],[139.77274,35.64604],[139.78853,35.65618],[139.79069,35.65635],[139.79091,35.65491],[139.79182,35.65527],[139.79095,35.65438],[139.79242,35.65293],[139.7866,35.6495],[139.77609,35.64203],[139.7788,35.63937],[139.78016,35.63935],[139.7947,35.64722],[139.79509,35.64834],[139.79304,35.65031],[139.79399,35.65083],[139.79769,35.64786],[139.79809,35.64474],[139.79629,35.64318],[139.79588,35.64312],[139.79444,35.6449],[139.78437,35.63944],[139.78414,35.6385],[139.78263,35.63769],[139.78121,35.63878],[139.77865,35.63727],[139.78493,35.62961],[139.78539,35.62971],[139.78733,35.62733],[139.79202,35.62987],[139.79862,35.62176],[139.80219,35.62622],[139.80033,35.63106],[139.80149,35.63281],[139.80137,35.63636],[139.80699,35.6369],[139.80604,35.64488],[139.80737,35.6455],[139.80917,35.64568],[139.80861,35.64502],[139.80879,35.64368],[139.80772,35.64334],[139.80812,35.64046],[139.82042,35.64163],[139.82167,35.64294],[139.83448,35.64407],[139.83368,35.63463],[139.82125,35.63344],[139.8217,35.63034],[139.82061,35.63024],[139.82063,35.62974],[139.82069,35.62975],[139.82062,35.63022],[139.82171,35.63033],[139.82167,35.63198],[139.84025,35.63389],[139.84098,35.64298],[139.84944,35.64276],[139.84945,35.64326],[139.84971,35.64246],[139.85199,35.64218],[139.8554,35.64021],[139.85947,35.63893],[139.86431,35.63854],[139.86904,35.6392],[139.87146,35.63864],[139.88349,35.64512],[139.8869,35.65373],[139.88739,35.65617],[139.88737,35.66792],[139.88553,35.67277],[139.88643,35.67857],[139.88795,35.67999],[139.89205,35.68164],[139.90379,35.68312],[139.90715,35.68438],[139.91385,35.69093],[139.91891,35.69827],[139.91699,35.70352],[139.91621,35.708],[139.91344,35.71051],[139.90812,35.71386],[139.90478,35.71888],[139.89865,35.72345],[139.89765,35.725],[139.89714,35.72784],[139.89757,35.73058],[139.90036,35.73617],[139.90102,35.7385],[139.90068,35.74135],[139.89945,35.74439],[139.89767,35.74613],[139.89288,35.74808],[139.89139,35.74927],[139.88405,35.75741],[139.88321,35.75862],[139.88247,35.76258],[139.87946,35.76752],[139.88029,35.7708],[139.88175,35.77286],[139.892,35.77743],[139.8938,35.77871],[139.89457,35.78056],[139.89378,35.78275],[139.88724,35.78402],[139.87725,35.78117],[139.87454,35.78178],[139.87204,35.78504],[139.87176,35.78475],[139.87119,35.78663],[139.87155,35.78798],[139.87326,35.79039],[139.87596,35.79219],[139.87658,35.7932],[139.87569,35.79553],[139.87339,35.79717],[139.86872,35.79701],[139.86385,35.79483],[139.85954,35.79523],[139.85737,35.79177],[139.85649,35.79096],[139.85529,35.79085],[139.85356,35.79156],[139.84721,35.79583],[139.84339,35.7998],[139.83801,35.80081],[139.8369,35.80046],[139.83277,35.79568],[139.83085,35.79463],[139.82605,35.79336],[139.82444,35.79495],[139.82277,35.79546],[139.82121,35.79675],[139.81968,35.79898],[139.82075,35.80554],[139.82292,35.80941],[139.82465,35.81065],[139.82493,35.81146],[139.82369,35.81388],[139.82106,35.81508],[139.82011,35.8128],[139.8211,35.81144],[139.82053,35.81123],[139.81965,35.81178],[139.81861,35.81106],[139.8186,35.81177],[139.81793,35.81042],[139.8147,35.80871],[139.81239,35.80826],[139.80471,35.80879],[139.8023,35.80855],[139.79884,35.80619],[139.794,35.8052],[139.79178,35.80542],[139.78723,35.80688],[139.78114,35.80723],[139.77851,35.80894],[139.77745,35.81066],[139.77176,35.81687],[139.77087,35.81738],[139.7681,35.81771],[139.76588,35.81726],[139.76515,35.81644],[139.76578,35.81574],[139.76127,35.81289],[139.75759,35.81197],[139.75561,35.81271],[139.7552,35.81073],[139.75446,35.81087],[139.75384,35.81047],[139.75191,35.81094],[139.75077,35.81017],[139.75045,35.80929],[139.75083,35.80891],[139.7503,35.80862],[139.75093,35.80789],[139.7505,35.80752],[139.75066,35.80667],[139.7551,35.80337],[139.75628,35.80175],[139.75981,35.79893],[139.76077,35.79741],[139.75997,35.79434],[139.7556,35.79003],[139.75626,35.78864],[139.7554,35.78719],[139.75003,35.78594],[139.74677,35.78685],[139.74582,35.78328],[139.74262,35.7817],[139.73805,35.78022],[139.73854,35.7874],[139.73533,35.78957],[139.73387,35.79005],[139.72659,35.78749],[139.72446,35.78727],[139.72315,35.78839],[139.72224,35.79073],[139.72074,35.79143],[139.71832,35.79188],[139.70975,35.79195],[139.7073,35.79253],[139.70526,35.79341],[139.69686,35.7989],[139.69316,35.8004],[139.68783,35.80084],[139.67838,35.79882],[139.67383,35.79917],[139.67106,35.8],[139.66737,35.80045],[139.65336,35.80023],[139.64787,35.79747],[139.64369,35.79822],[139.64086,35.79794],[139.63941,35.79285],[139.63765,35.79155],[139.63792,35.7912],[139.63611,35.79045],[139.63423,35.79034],[139.63372,35.7895],[139.63273,35.78929],[139.63157,35.7882],[139.63213,35.78744],[139.63169,35.78634],[139.63035,35.78536],[139.62907,35.78574],[139.62787,35.78466],[139.62774,35.78313],[139.62453,35.78081],[139.62421,35.77433],[139.6256,35.77302],[139.62408,35.77125],[139.62299,35.76687],[139.61773,35.76665],[139.61758,35.76773],[139.61682,35.76844],[139.61723,35.77035],[139.61542,35.77087],[139.61248,35.77043],[139.61171,35.76938],[139.61127,35.77107],[139.6099,35.77032],[139.60875,35.76884],[139.60714,35.76938],[139.60636,35.77095],[139.60429,35.76997],[139.60286,35.77096],[139.59821,35.76914],[139.59768,35.76993],[139.59835,35.77017],[139.59739,35.77098],[139.59844,35.77214],[139.60268,35.77436],[139.60398,35.77422],[139.60438,35.77502],[139.59694,35.77641],[139.5972,35.77837],[139.59414,35.7787],[139.59341,35.77719],[139.58876,35.77853],[139.58668,35.77528],[139.58398,35.77483],[139.58377,35.77285],[139.58186,35.77245],[139.58224,35.77121],[139.581,35.77112],[139.58065,35.77179],[139.58068,35.77109],[139.57817,35.77085],[139.57807,35.76947],[139.57689,35.76807],[139.57434,35.76819],[139.57459,35.76623],[139.57239,35.76645],[139.57243,35.76582],[139.57004,35.76559],[139.57108,35.76334],[139.56973,35.76301],[139.56931,35.76363],[139.56824,35.76351],[139.56837,35.76282],[139.56679,35.76282],[139.56678,35.76196],[139.56561,35.76188],[139.56503,35.76196],[139.56474,35.76282],[139.56358,35.76284],[139.56268,35.76139],[139.56181,35.76107],[139.56183,35.7596],[139.55987,35.7592],[139.55778,35.75958],[139.5572,35.759],[139.55615,35.75888],[139.55577,35.75775],[139.55539,35.75775],[139.55525,35.75574],[139.55204,35.75596],[139.55151,35.75525],[139.55,35.75526],[139.55006,35.75438],[139.54716,35.75338],[139.54678,35.75509],[139.54483,35.75462],[139.54435,35.75548],[139.54512,35.75758],[139.54698,35.7603],[139.54669,35.76269],[139.54714,35.76275],[139.54764,35.76617],[139.54695,35.76955],[139.54765,35.77108],[139.54766,35.77423],[139.54407,35.77331],[139.54167,35.772],[139.53279,35.76944],[139.5303,35.76835],[139.52727,35.76781],[139.52705,35.76826],[139.52138,35.76757],[139.51637,35.76557],[139.52282,35.77189],[139.52595,35.77214],[139.52635,35.77162],[139.52845,35.77304],[139.52808,35.77344],[139.53075,35.77323],[139.53337,35.77378],[139.53595,35.77518],[139.53648,35.77563],[139.5362,35.77596],[139.53749,35.77688],[139.53987,35.77778],[139.53977,35.77834],[139.54298,35.77981],[139.54374,35.78208],[139.54379,35.78819],[139.54127,35.78958],[139.54074,35.78949],[139.54077,35.78986],[139.53758,35.79076],[139.53733,35.7915],[139.53866,35.79221],[139.54024,35.79405],[139.54479,35.79676],[139.54622,35.79923],[139.5472,35.80266],[139.54667,35.80369],[139.54526,35.80458],[139.54429,35.80664],[139.5417,35.80731],[139.53686,35.80394],[139.53177,35.79684],[139.52926,35.79413],[139.52769,35.7929],[139.52594,35.79251],[139.52552,35.79188],[139.52311,35.79171],[139.52372,35.79033],[139.52256,35.78923],[139.52028,35.78837],[139.51684,35.78895],[139.51404,35.7885],[139.51256,35.78536],[139.50846,35.78466],[139.5067,35.78277],[139.5045,35.78315],[139.49938,35.78217],[139.49803,35.78121],[139.49692,35.77873],[139.49635,35.77922],[139.49576,35.78167],[139.49349,35.7817],[139.49375,35.77958],[139.49147,35.7803],[139.49106,35.78001],[139.49081,35.78061],[139.49007,35.78083],[139.48974,35.78046],[139.49008,35.77936],[139.48958,35.77915],[139.48896,35.77947],[139.48961,35.77961],[139.4897,35.78008],[139.48858,35.77939],[139.48549,35.78071],[139.48277,35.78069],[139.48252,35.78109],[139.48223,35.78066],[139.4795,35.77994],[139.47842,35.77836],[139.47535,35.77685],[139.47564,35.77617],[139.47631,35.77635],[139.47694,35.77574],[139.47671,35.77533],[139.47397,35.77568],[139.47407,35.77466],[139.47226,35.77433],[139.47116,35.7734],[139.46985,35.77421],[139.46467,35.77372],[139.46332,35.77288],[139.4625,35.77346],[139.46134,35.77343],[139.46079,35.77257],[139.4592,35.77216],[139.45866,35.76986],[139.45806,35.76931],[139.45504,35.7696],[139.4538,35.76935],[139.45319,35.7685],[139.45102,35.76933],[139.44998,35.76873],[139.4465,35.76809],[139.44497,35.76666],[139.44088,35.76693],[139.44,35.76761],[139.43963,35.76916],[139.43866,35.76959],[139.43796,35.76908],[139.43848,35.76854],[139.43827,35.76796],[139.43641,35.76721],[139.43322,35.76735],[139.43181,35.76635],[139.42917,35.76697],[139.42762,35.76645],[139.42495,35.76726],[139.42335,35.76719],[139.42221,35.7678],[139.41956,35.7659],[139.41603,35.76623],[139.41544,35.76693],[139.41368,35.76717],[139.41286,35.76809],[139.41198,35.76794],[139.40951,35.76869],[139.40734,35.76847],[139.40459,35.76914],[139.4031,35.76843],[139.40151,35.76855],[139.40047,35.76803],[139.39824,35.7643],[139.39591,35.76424],[139.39215,35.76329],[139.39046,35.764],[139.39182,35.76683],[139.39166,35.76741],[139.3896,35.76714],[139.38507,35.76523],[139.3813,35.76584],[139.38011,35.76651],[139.37895,35.77089],[139.38001,35.77199],[139.38034,35.77331],[139.38148,35.77427],[139.38154,35.77703],[139.37988,35.77701],[139.37993,35.77891],[139.37552,35.78046],[139.37104,35.77821],[139.37027,35.77829],[139.37044,35.77877],[139.37146,35.77881],[139.37301,35.77972],[139.37173,35.78039],[139.37145,35.7816],[139.36991,35.78154],[139.3699,35.78261],[139.36767,35.78416],[139.36719,35.7856],[139.36815,35.78606],[139.36783,35.78704],[139.36987,35.78761],[139.36871,35.79029],[139.37026,35.7909],[139.36992,35.79173],[139.35984,35.79162],[139.35889,35.79193],[139.35857,35.79298],[139.35665,35.79348],[139.35492,35.79372],[139.35355,35.79327],[139.35349,35.79287],[139.35271,35.7935],[139.35066,35.79327],[139.34971,35.79491],[139.34787,35.79525],[139.34761,35.79602],[139.34686,35.79641],[139.34335,35.7947],[139.34288,35.79403],[139.3385,35.79459],[139.33667,35.79377],[139.33488,35.7937],[139.33278,35.79189],[139.33037,35.79362],[139.33036,35.79434],[139.3254,35.79541],[139.32225,35.7995],[139.32262,35.80027],[139.31909,35.80698],[139.31834,35.80983],[139.31679,35.81147],[139.31675,35.81269],[139.31502,35.81427],[139.31505,35.81689],[139.3165,35.81936],[139.31619,35.82359],[139.31515,35.82453],[139.31524,35.82499],[139.3116,35.82533],[139.30477,35.8224],[139.30486,35.82387],[139.30244,35.82421],[139.30269,35.82601],[139.30205,35.82856],[139.30117,35.82969],[139.30176,35.83109],[139.30139,35.83394],[139.30208,35.83402],[139.30162,35.8347],[139.29682,35.83548],[139.2956,35.83385],[139.29091,35.83796],[139.28656,35.83707],[139.28494,35.83601],[139.28288,35.83717],[139.28168,35.83976],[139.28033,35.84068],[139.27992,35.83925],[139.27841,35.8396],[139.27152,35.83968],[139.26824,35.83824],[139.26312,35.83731],[139.26043,35.83599],[139.25889,35.83639],[139.2588,35.83727],[139.25669,35.83707],[139.25642,35.83777],[139.25226,35.83825],[139.25113,35.83756],[139.24838,35.83757],[139.24681,35.83689],[139.24278,35.8366],[139.24123,35.84004],[139.23904,35.84052],[139.23702,35.84015],[139.23536,35.83805],[139.23423,35.83813],[139.23281,35.83675],[139.23127,35.83664],[139.23005,35.83691],[139.22804,35.83833],[139.22765,35.83912],[139.22455,35.8405],[139.22018,35.8413],[139.21933,35.84252],[139.21822,35.84274],[139.21584,35.84431],[139.21492,35.84578],[139.21369,35.84553],[139.21288,35.8459],[139.21265,35.84661],[139.20987,35.84618],[139.20761,35.84644],[139.20633,35.84591],[139.20494,35.84466],[139.2048,35.84303],[139.20314,35.8412],[139.19825,35.8411],[139.19581,35.84005],[139.19244,35.84027],[139.18928,35.84137],[139.18676,35.84292],[139.18416,35.84279],[139.18363,35.84357],[139.18183,35.84379],[139.18107,35.84477],[139.17544,35.8472],[139.17436,35.84831],[139.17111,35.84861],[139.16909,35.84998],[139.16617,35.84997],[139.16325,35.85097],[139.16215,35.85211],[139.1594,35.85707],[139.1533,35.85932],[139.14754,35.86271],[139.14176,35.86326],[139.13536,35.86539],[139.13189,35.86443],[139.1292,35.86556],[139.12742,35.86564],[139.12608,35.86504],[139.12182,35.86493],[139.11927,35.86429],[139.11577,35.86447],[139.11445,35.86537],[139.11173,35.86468],[139.10967,35.86571],[139.10698,35.86575],[139.10268,35.86658],[139.10137,35.86569],[139.09909,35.86867],[139.0945,35.86951],[139.09166,35.86903],[139.08923,35.87103],[139.08399,35.87343],[139.08254,35.87487],[139.07997,35.87532],[139.07776,35.87534],[139.07611,35.87483],[139.07224,35.8716],[139.07007,35.87158],[139.0662,35.8728],[139.06506,35.87273],[139.06163,35.87363],[139.05931,35.8749],[139.05797,35.87744],[139.05539,35.87748],[139.04984,35.87883],[139.04833,35.88121],[139.04729,35.8815],[139.04575,35.88343],[139.04444,35.88382],[139.04287,35.8856],[139.04035,35.88631],[139.03742,35.88922],[139.02933,35.89291],[139.02545,35.89553],[139.02401,35.89729],[139.02089,35.89716],[139.0184,35.89842],[139.01338,35.89826],[139.01032,35.89717],[139.00681,35.89364],[139.00666,35.88962],[139.00568,35.88824],[139.00289,35.88622],[139.00093,35.88401],[138.99588,35.88445],[138.99458,35.88326],[138.98847,35.88112],[138.98526,35.88118],[138.98306,35.88299],[138.97921,35.885],[138.97249,35.88198],[138.96802,35.88221],[138.9667,35.88064],[138.96641,35.87897],[138.9652,35.87779],[138.96229,35.87677],[138.96008,35.87678],[138.95523,35.8753],[138.95446,35.87491],[138.95424,35.87387],[138.94993,35.86949],[138.94526,35.86812],[138.94658,35.86447],[138.94489,35.86275],[138.9439,35.86086],[138.94287,35.86016],[138.94302,35.8572],[138.94393,35.85482],[138.94612,35.85373],[138.94855,35.84954],[138.94781,35.84756],[138.94798,35.84482],[138.94748,35.84271],[138.94912,35.84047],[138.95326,35.83652],[138.95832,35.83291],[138.9593,35.83136],[138.96139,35.83066],[138.9622,35.82961],[138.96425,35.82938],[138.9693,35.83138],[138.96977,35.83123],[138.97048,35.82736],[138.96973,35.82451],[138.97007,35.82128],[138.96945,35.81906],[138.96963,35.81621],[138.97185,35.81438],[138.97223,35.81152],[138.97206,35.81066],[138.97086,35.80945],[138.97022,35.80487],[138.97124,35.8037],[138.97111,35.80142],[138.9718,35.799],[138.97359,35.79758],[138.97468,35.79489],[138.97565,35.7945],[138.97711,35.79275],[138.97699,35.7922],[138.97608,35.79187],[138.97672,35.78924],[138.97909,35.78781],[138.97952,35.78709],[138.98168,35.78713],[138.98486,35.78561],[138.98469,35.78384],[138.98643,35.78225],[138.98608,35.78152],[138.9867,35.78089],[138.98562,35.77798],[138.98532,35.77442],[138.98366,35.77223],[138.98377,35.76948],[138.9844,35.76776],[138.98651,35.76646],[138.98734,35.76503],[138.98936,35.76349],[138.9911,35.75936],[138.99275,35.75758],[138.99257,35.75538],[138.99561,35.75377],[138.99722,35.75198],[139.00038,35.75049],[139.00215,35.75012],[139.00516,35.75045],[139.00518,35.74896],[139.01039,35.74229],[139.01498,35.73323],[139.01575,35.73311],[139.01793,35.73122],[139.01848,35.72987],[139.0209,35.72728],[139.02207,35.7248],[139.02195,35.72301],[139.02253,35.72199],[139.02547,35.71915],[139.02898,35.71677],[139.03235,35.71621],[139.03478,35.71496],[139.03888,35.7112],[139.04114,35.71071],[139.04338,35.70957],[139.04738,35.70925],[139.04842,35.70801],[139.05068,35.70737],[139.05209,35.70483],[139.06272,35.70073],[139.06531,35.69784],[139.06674,35.6984],[139.07069,35.69759],[139.07221,35.69536],[139.07481,35.69556],[139.07632,35.69489],[139.07816,35.69571],[139.08201,35.69555],[139.08358,35.69438],[139.0844,35.69308],[139.08579,35.69308],[139.08767,35.6918],[139.09211,35.69055],[139.09311,35.69151],[139.09571,35.69112],[139.09741,35.69233],[139.09928,35.69235],[139.10472,35.6909],[139.10586,35.69098],[139.10826,35.68974],[139.11262,35.68496],[139.11363,35.68436],[139.11649,35.68382],[139.11893,35.68149],[139.11952,35.6803],[139.12234,35.6787],[139.12333,35.67752],[139.12483,35.67771],[139.12774,35.67625],[139.13109,35.67201],[139.13352,35.6729],[139.13673,35.67241],[139.13893,35.67054],[139.14076,35.67058],[139.14279,35.67001],[139.14315,35.66903],[139.14716,35.66682],[139.1514,35.66672],[139.1536,35.66602],[139.15588,35.66658],[139.15708,35.66646],[139.15934,35.66752],[139.1616,35.66791],[139.1621,35.66698],[139.16367,35.66645],[139.16422,35.66554],[139.16498,35.66528],[139.16513,35.66334],[139.16723,35.66176],[139.16702,35.6593],[139.16836,35.65856],[139.16863,35.65682],[139.16796,35.65576],[139.16784,35.65386],[139.16659,35.65234],[139.16695,35.65107],[139.16957,35.65149],[139.17179,35.65034],[139.17332,35.65044],[139.17495,35.64989],[139.17585,35.64916],[139.17612,35.64819],[139.17909,35.64557],[139.18137,35.64574],[139.18423,35.64507],[139.18794,35.64655],[139.18983,35.64653],[139.19182,35.64761],[139.19247,35.65026],[139.19399,35.65178],[139.19573,35.65129],[139.19826,35.653],[139.20131,35.65254],[139.20211,35.65301],[139.20356,35.65169],[139.20564,35.65136],[139.20732,35.64972],[139.21146,35.64912],[139.21546,35.64612],[139.21574,35.64537],[139.21481,35.64396],[139.21443,35.64155],[139.21552,35.63927],[139.21537,35.63708],[139.21643,35.63597],[139.21679,35.63448],[139.21854,35.63365],[139.21916,35.63197],[139.22143,35.62947],[139.21948,35.62668],[139.21964,35.6259],[139.22591,35.62348],[139.22617,35.62232],[139.22758,35.62082],[139.22859,35.62053],[139.22966,35.61899],[139.23048,35.6169],[139.22988,35.61457],[139.23455,35.61169],[139.2365,35.60984],[139.2378,35.6098],[139.23864,35.60698],[139.24059,35.60625],[139.24283,35.60625],[139.24549,35.60513],[139.24722,35.6051],[139.24925,35.60366],[139.25075,35.6032],[139.25222,35.60167],[139.25771,35.60423],[139.2612,35.60287],[139.26478,35.60246],[139.26614,35.60563],[139.26616,35.60811],[139.26738,35.6083],[139.26827,35.60924],[139.27125,35.6098],[139.27406,35.61102],[139.27603,35.61085],[139.27755,35.61154],[139.27988,35.61148],[139.28156,35.61284],[139.28416,35.61333],[139.28463,35.61293],[139.28525,35.61339],[139.286,35.61251],[139.28732,35.6126],[139.28962,35.61196],[139.29016,35.61258],[139.2912,35.61192],[139.29142,35.61219],[139.29254,35.61184],[139.29252,35.61118],[139.2933,35.61067],[139.29435,35.61117],[139.29529,35.61026],[139.2966,35.60994],[139.297,35.608],[139.29875,35.60764],[139.29843,35.60708],[139.29901,35.6069],[139.29917,35.60624],[139.30116,35.6065],[139.30107,35.60582],[139.30168,35.60598],[139.30419,35.60462],[139.30484,35.60473],[139.30452,35.60527],[139.30553,35.60494],[139.30614,35.60547],[139.30711,35.60509],[139.30771,35.60534],[139.3076,35.60479],[139.30923,35.60422],[139.3128,35.60468],[139.31428,35.6043],[139.31462,35.60548],[139.31712,35.60538],[139.31728,35.60579],[139.31896,35.60609],[139.32002,35.60573],[139.31983,35.60626],[139.32075,35.60653],[139.32161,35.60584],[139.32224,35.60601],[139.323,35.60525],[139.3234,35.60554],[139.32471,35.60469],[139.32489,35.60515],[139.32687,35.60432],[139.32687,35.60387],[139.32919,35.60335],[139.32957,35.60368],[139.33023,35.60315],[139.33101,35.60425],[139.33281,35.60415],[139.33346,35.60372],[139.33515,35.60454],[139.33546,35.60419],[139.33591,35.6045],[139.33789,35.60435],[139.33927,35.6055],[139.34,35.60553],[139.34188,35.60454],[139.34256,35.60315],[139.34299,35.60365],[139.3442,35.60259],[139.34724,35.60195],[139.34729,35.60235],[139.34743,35.6019],[139.3483,35.60224],[139.34828,35.60163],[139.35307,35.60081],[139.35336,35.60003],[139.35484,35.60055],[139.35618,35.59923],[139.35793,35.59871],[139.36277,35.59913],[139.36627,35.59749],[139.37014,35.59451],[139.37156,35.59433],[139.37333,35.59491],[139.37504,35.59409],[139.37658,35.5921],[139.3791,35.59071],[139.37916,35.5902],[139.38072,35.59052],[139.38101,35.58992],[139.382,35.58951],[139.38299,35.58995],[139.38296,35.58912],[139.38451,35.58848],[139.38437,35.58761],[139.38523,35.58748],[139.38533,35.58819],[139.38862,35.58853],[139.39108,35.58526],[139.39416,35.58564],[139.39486,35.58408],[139.39559,35.58431],[139.39608,35.58388],[139.39667,35.58446],[139.3998,35.58443],[139.39921,35.58333],[139.39964,35.58193],[139.4007,35.58147],[139.40033,35.58061],[139.40105,35.58014],[139.40151,35.57703],[139.40211,35.57645],[139.40299,35.5766],[139.40266,35.57602],[139.40332,35.57553],[139.40735,35.57583],[139.4091,35.57522],[139.41285,35.56622],[139.41343,35.56625],[139.41623,35.56381],[139.4158,35.56244],[139.41623,35.56189],[139.418,35.56192],[139.42244,35.55944],[139.42364,35.55622],[139.42785,35.55227],[139.42803,35.55168],[139.42766,35.55178],[139.42737,35.5512],[139.43199,35.54874],[139.43339,35.54636],[139.4347,35.54654],[139.43521,35.54623],[139.43601,35.54683],[139.43789,35.54578],[139.43769,35.54549],[139.43815,35.54558],[139.43878,35.54427],[139.44044,35.5431],[139.44377,35.54191],[139.44435,35.54242],[139.4451,35.54207],[139.4451,35.54113],[139.44815,35.5378],[139.44826,35.536],[139.44896,35.53489],[139.44985,35.53475],[139.44964,35.53432],[139.45053,35.53398],[139.45058,35.53351],[139.45415,35.53144],[139.45548,35.52956],[139.45832,35.52799],[139.45842,35.52673],[139.45759,35.52706],[139.45697,35.52534],[139.45482,35.52274],[139.45477,35.52169],[139.45577,35.52047],[139.46112,35.51928],[139.46344,35.51762],[139.46485,35.5109],[139.46809,35.50678],[139.46772,35.50237],[139.46842,35.50207],[139.47143,35.50206],[139.47381,35.50125],[139.47638,35.50135],[139.48035,35.50297],[139.48494,35.50397],[139.48106,35.50536],[139.47697,35.5114],[139.48035,35.51473],[139.48328,35.51915],[139.48454,35.51996],[139.48634,35.51984],[139.48569,35.52221],[139.48759,35.52478],[139.48653,35.5265],[139.4878,35.52788],[139.48679,35.52888],[139.48579,35.53113],[139.48682,35.53553],[139.48453,35.5361],[139.48504,35.53699],[139.48492,35.53818],[139.48398,35.53918],[139.48164,35.53995],[139.48033,35.54315],[139.48088,35.54596],[139.4823,35.54722],[139.48258,35.54854],[139.48196,35.55045],[139.48186,35.55596],[139.47973,35.55939],[139.47789,35.56044],[139.47649,35.56255],[139.47536,35.56133],[139.47535,35.56],[139.47474,35.55961],[139.47041,35.56041],[139.46948,35.56244],[139.46827,35.56314],[139.46965,35.5653],[139.46917,35.56674],[139.46967,35.5695],[139.47046,35.57048],[139.47173,35.57105],[139.47325,35.57385],[139.47368,35.57532],[139.47324,35.57667],[139.47639,35.58194],[139.47783,35.58222],[139.478,35.58171],[139.47719,35.58119],[139.47795,35.58064],[139.48051,35.58168],[139.48208,35.58161],[139.48517,35.58469],[139.48684,35.5847],[139.48828,35.58394],[139.48985,35.58423],[139.48838,35.57847],[139.48606,35.57836],[139.48375,35.57196],[139.48287,35.57138],[139.48636,35.56904],[139.48604,35.56758],[139.48736,35.56706],[139.48925,35.56181],[139.49123,35.56149],[139.493,35.56263],[139.49467,35.56486],[139.49627,35.56464],[139.49789,35.5678],[139.50083,35.56853],[139.5006,35.57044]],[[139.82309,35.54384],[139.8198,35.54238],[139.80709,35.53111],[139.81096,35.5282],[139.82603,35.54157],[139.82309,35.54384]],[[139.82928,35.58194],[139.83122,35.583],[139.82922,35.58201],[139.82928,35.58194]],[[139.81916,35.60899],[139.81923,35.60894],[139.82442,35.61007],[139.81916,35.60899]],[[139.81765,35.6176],[139.81769,35.61754],[139.82192,35.61931],[139.81765,35.6176]],[[139.82073,35.629],[139.82079,35.62901],[139.82077,35.62904],[139.82073,35.629]],[[139.81396,35.63003],[139.81593,35.63022],[139.81396,35.63005],[139.81396,35.63003]],[[139.81813,35.63043],[139.81615,35.63026],[139.81667,35.63029],[139.81813,35.63043]],[[139.81945,35.63056],[139.81944,35.63058],[139.81835,35.63045],[139.81945,35.63056]],[[139.81781,35.63268],[139.81582,35.63249],[139.81781,35.63267],[139.81781,35.63268]],[[139.82022,35.6329],[139.82022,35.63292],[139.81802,35.63269],[139.82022,35.6329]],[[139.81551,35.63474],[139.81551,35.63471],[139.81748,35.63493],[139.81551,35.63474]],[[139.82769,35.63497],[139.82769,35.63495],[139.82843,35.63504],[139.82769,35.63497]],[[139.8177,35.63495],[139.8177,35.63493],[139.81989,35.63516],[139.8177,35.63495]],[[139.82939,35.63513],[139.82865,35.63506],[139.82939,35.63511],[139.82939,35.63513]],[[139.83041,35.63521],[139.8304,35.63523],[139.82967,35.63514],[139.83041,35.63521]],[[139.83062,35.63525],[139.83063,35.63523],[139.83137,35.63532],[139.83062,35.63525]],[[139.82638,35.63496],[139.82625,35.63572],[139.82636,35.63495],[139.82654,35.63484],[139.82742,35.63494],[139.82638,35.63496]],[[139.83267,35.63555],[139.83273,35.63634],[139.83264,35.63556],[139.83164,35.63535],[139.83267,35.63555]],[[139.82624,35.63595],[139.82613,35.6367],[139.82715,35.63695],[139.82625,35.63686],[139.82611,35.63671],[139.82624,35.63595]],[[139.82737,35.63695],[139.82815,35.63702],[139.82737,35.63697],[139.82737,35.63695]],[[139.81519,35.63696],[139.81606,35.63704],[139.81519,35.63698],[139.81519,35.63696]],[[139.83265,35.63747],[139.83132,35.63735],[139.83264,35.63745],[139.83273,35.63657],[139.83265,35.63747]],[[139.82913,35.63712],[139.82913,35.63714],[139.82836,35.63704],[139.82913,35.63712]],[[139.81716,35.63716],[139.81628,35.63708],[139.81716,35.63714],[139.81716,35.63716]],[[139.82935,35.63716],[139.82935,35.63714],[139.83012,35.63723],[139.82935,35.63716]],[[139.81826,35.63725],[139.81825,35.63727],[139.81738,35.63717],[139.81826,35.63725]],[[139.8311,35.63732],[139.83033,35.63725],[139.8311,35.63731],[139.8311,35.63732]],[[139.81957,35.63738],[139.81957,35.63739],[139.81848,35.63727],[139.81957,35.63738]],[[139.82483,35.63958],[139.82613,35.64283],[139.82286,35.64232],[139.82296,35.64168],[139.8201,35.63905],[139.82044,35.63906],[139.82116,35.63406],[139.82556,35.63426],[139.82512,35.63746],[139.83277,35.63821],[139.83295,35.64036],[139.82483,35.63958]],[[139.81988,35.63898],[139.81988,35.63903],[139.81982,35.63897],[139.81988,35.63898]],[[139.81903,35.63912],[139.81935,35.63895],[139.81935,35.63898],[139.81903,35.63912]],[[139.81904,35.6391],[139.81883,35.63925],[139.81903,35.63908],[139.81904,35.6391]],[[139.82742,35.64062],[139.82742,35.6406],[139.82819,35.6407],[139.82742,35.64062]],[[139.82841,35.64072],[139.82841,35.6407],[139.82918,35.64079],[139.82841,35.64072]],[[139.83017,35.64087],[139.83016,35.64088],[139.8294,35.64079],[139.83017,35.64087]],[[139.83038,35.6409],[139.83038,35.64089],[139.83115,35.64098],[139.83038,35.6409]],[[139.82618,35.64065],[139.8272,35.64058],[139.82621,35.64066],[139.82658,35.64146],[139.82618,35.64065]],[[139.83137,35.641],[139.83137,35.64098],[139.83213,35.64107],[139.83137,35.641]],[[139.82698,35.64234],[139.8279,35.64254],[139.82714,35.64246],[139.82696,35.64235],[139.82665,35.64167],[139.82698,35.64234]],[[139.82818,35.64254],[139.82892,35.64262],[139.82817,35.64256],[139.82818,35.64254]],[[139.82988,35.64273],[139.82913,35.64265],[139.82988,35.64271],[139.82988,35.64273]],[[139.83089,35.6428],[139.83089,35.64282],[139.83015,35.64274],[139.83089,35.6428]],[[139.83111,35.64284],[139.83111,35.64283],[139.83185,35.64292],[139.83111,35.64284]],[[139.82941,35.61999],[139.83171,35.62124],[139.83294,35.61974],[139.83063,35.61849],[139.83245,35.61627],[139.82814,35.61198],[139.83249,35.61623],[139.83552,35.61249],[139.8386,35.61416],[139.84011,35.63207],[139.83911,35.63198],[139.83922,35.63125],[139.83849,35.63107],[139.83711,35.63104],[139.83701,35.63177],[139.82585,35.6307],[139.82742,35.6198],[139.82941,35.61999]],[[139.85816,35.63459],[139.8611,35.63693],[139.86178,35.63665],[139.86174,35.63616],[139.86317,35.6357],[139.86447,35.63672],[139.86736,35.63468],[139.86586,35.63268],[139.86641,35.63293],[139.86745,35.63433],[139.86714,35.63565],[139.86443,35.63703],[139.86225,35.63734],[139.86025,35.6367],[139.85816,35.63459]],[[139.86361,35.63505],[139.86356,35.63532],[139.86231,35.63525],[139.86361,35.63505]],[[139.8496,35.63573],[139.84991,35.63847],[139.8506,35.63859],[139.85359,35.63851],[139.85747,35.63753],[139.85869,35.63648],[139.85749,35.63501],[139.85904,35.63673],[139.85833,35.63803],[139.85563,35.63855],[139.85483,35.63929],[139.85195,35.64039],[139.85011,35.6398],[139.84967,35.63816],[139.8496,35.63573]],[[139.83301,35.64114],[139.8332,35.64201],[139.833,35.64116],[139.83235,35.64109],[139.83301,35.64114]],[[139.83311,35.64304],[139.83208,35.64294],[139.8331,35.64302],[139.8332,35.64222],[139.83311,35.64304]]],[[[139.77224,35.62197],[139.77206,35.6222],[139.77199,35.62229],[139.7736,35.62031],[139.77224,35.62197]]],[[[139.77177,35.62258],[139.77199,35.6223],[139.77199,35.62229],[139.77177,35.62258]]],[[[139.77271,35.62409],[139.77295,35.62425],[139.77295,35.62425],[139.77271,35.62409]]],[[[139.77365,35.62471],[139.77377,35.62478],[139.77377,35.62478],[139.77365,35.62471]]],[[[139.77413,35.625],[139.77413,35.625],[139.77413,35.625],[139.77449,35.62521],[139.77413,35.625]]],[[[139.77632,35.62627],[139.77501,35.62551],[139.77501,35.62551],[139.77632,35.62627]]],[[[139.78203,35.62932],[139.78214,35.62938],[139.78214,35.62938],[139.78203,35.62932]]],[[[139.84639,35.66791],[139.8463,35.66667],[139.84612,35.66415],[139.84639,35.66791]]],[[[139.84596,35.66205],[139.84573,35.65892],[139.84588,35.66091],[139.84601,35.66272],[139.84596,35.66205]]],[[[139.84568,35.65828],[139.84567,35.65806],[139.84554,35.65672],[139.85,35.65654],[139.85,35.65654],[139.85,35.65654],[139.84554,35.65672],[139.84568,35.65828]]],[[[139.74601,35.70301],[139.74599,35.703],[139.74587,35.70291],[139.74564,35.70274],[139.74562,35.70274],[139.74564,35.70274],[139.74587,35.70291],[139.74601,35.70301]]],[[[139.74522,35.7025],[139.74526,35.70252],[139.74526,35.70252],[139.74522,35.7025]]],[[[139.74473,35.70225],[139.74482,35.70229],[139.74474,35.70225],[139.74473,35.70225]]],[[[139.74446,35.70229],[139.74431,35.70216],[139.74448,35.70231],[139.74446,35.70229]]],[[[139.7441,35.702],[139.74413,35.70203],[139.74413,35.70203],[139.7441,35.702]]],[[[139.74394,35.70185],[139.74391,35.70183],[139.74392,35.70183],[139.74394,35.70185]]],[[[139.74412,35.70127],[139.74377,35.7017],[139.74412,35.70127],[139.74302,35.7],[139.74412,35.70127]]],[[[139.74263,35.6996],[139.73944,35.69552],[139.73998,35.69629],[139.74263,35.6996]]],[[[139.73887,35.69469],[139.73828,35.69401],[139.73931,35.69533],[139.73887,35.69469]]],[[[139.73935,35.69538],[139.73934,35.69537],[139.73931,35.69533],[139.73935,35.69538]]],[[[139.73813,35.69385],[139.73779,35.69344],[139.73784,35.69353],[139.73813,35.69385]]],[[[139.7374,35.69307],[139.73769,35.69334],[139.73757,35.69323],[139.7374,35.69307]]],[[[139.73615,35.69212],[139.73615,35.69212],[139.73627,35.69218],[139.73615,35.69212]]],[[[139.73628,35.69219],[139.73627,35.69218],[139.73628,35.69219],[139.73628,35.69219]]],[[[139.73658,35.6924],[139.73628,35.69219],[139.73628,35.69219],[139.73658,35.6924]]],[[[139.73607,35.69208],[139.73608,35.69209],[139.73608,35.69208],[139.73607,35.69208]]],[[[139.73519,35.69163],[139.73527,35.69167],[139.73527,35.69167],[139.73519,35.69163]]],[[[139.73439,35.69122],[139.73429,35.69116],[139.73436,35.6912],[139.73439,35.69122]]],[[[139.7339,35.6909],[139.734,35.69097],[139.73399,35.69097],[139.7339,35.6909]]],[[[139.73149,35.6895],[139.73128,35.68928],[139.73138,35.6894],[139.73149,35.6895]]],[[[139.73067,35.68754],[139.73085,35.68829],[139.73109,35.68894],[139.73102,35.68863],[139.73096,35.68847],[139.73085,35.68829],[139.73076,35.68788],[139.73067,35.68754],[139.73028,35.68671],[139.73028,35.68671],[139.73067,35.68754]]],[[[139.73017,35.6847],[139.73027,35.68451],[139.73048,35.68355],[139.73075,35.68288],[139.7315,35.6815],[139.7312,35.68198],[139.731,35.68236],[139.73075,35.68288],[139.73048,35.68355],[139.73041,35.68382],[139.73032,35.68425],[139.73027,35.68451],[139.73017,35.6847],[139.73026,35.68645],[139.73017,35.6847]]],[[[139.38085,35.59032],[139.38082,35.5905],[139.38093,35.59029],[139.38085,35.59032]]],[[[139.76638,35.69979],[139.76622,35.69973],[139.76622,35.69973],[139.76638,35.69979]]],[[[139.76622,35.69973],[139.76622,35.69973],[139.76622,35.69973],[139.76622,35.69973]]],[[[139.76667,35.69992],[139.76664,35.69991],[139.76667,35.69992],[139.76667,35.69992]]],[[[139.76699,35.70006],[139.76685,35.7],[139.76685,35.7],[139.76699,35.70006]]],[[[139.7677,35.70074],[139.76779,35.70067],[139.7685,35.70014],[139.76828,35.6997],[139.7685,35.70014],[139.7677,35.70074]]],[[[139.76787,35.70097],[139.76772,35.70077],[139.76787,35.70097],[139.76742,35.70114],[139.76787,35.70097]]],[[[139.7664,35.70178],[139.7673,35.70101],[139.7664,35.70178],[139.76677,35.70265],[139.7664,35.70178]]],[[[139.76788,35.70274],[139.76784,35.7026],[139.76784,35.7026],[139.76788,35.70274]]],[[[139.7681,35.70274],[139.76809,35.70295],[139.76808,35.70308],[139.76807,35.70334],[139.76806,35.70347],[139.76807,35.70334],[139.76807,35.7033],[139.76808,35.70308],[139.7681,35.70274]]],[[[139.77009,35.70419],[139.76998,35.70373],[139.76989,35.70337],[139.77013,35.70526],[139.77009,35.70419]]],[[[139.77014,35.70535],[139.77014,35.70535],[139.77013,35.70526],[139.77014,35.70535]]],[[[139.76885,35.68793],[139.76813,35.68863],[139.76812,35.68864],[139.76885,35.68793]]],[[[139.78764,35.67642],[139.78758,35.67628],[139.78759,35.67629],[139.78764,35.67642]]],[[[139.78895,35.67894],[139.78897,35.67898],[139.78896,35.67897],[139.78895,35.67894]]],[[[139.7892,35.6793],[139.78992,35.68017],[139.78982,35.68005],[139.7892,35.6793]]],[[[139.79167,35.68234],[139.79185,35.68256],[139.7918,35.6825],[139.79167,35.68234]]],[[[139.79222,35.6832],[139.79201,35.68284],[139.79212,35.68303],[139.79222,35.6832]]],[[[139.78039,35.70029],[139.78038,35.70027],[139.78038,35.70028],[139.78039,35.70029]]],[[[139.7801,35.69875],[139.78012,35.69887],[139.7801,35.69875],[139.7801,35.69875]]],[[[139.85036,35.65624],[139.85034,35.65598],[139.85031,35.65545],[139.85029,35.65512],[139.85031,35.65545],[139.85033,35.6557],[139.85034,35.65598],[139.85038,35.65653],[139.85036,35.65624]]],[[[139.84991,35.6498],[139.84991,35.64981],[139.85006,35.65198],[139.85009,35.65234],[139.85011,35.65275],[139.85019,35.65377],[139.85018,35.65364],[139.85011,35.65275],[139.85009,35.65234],[139.85006,35.65198],[139.85004,35.65171],[139.85,35.65116],[139.85,35.6511],[139.84996,35.65056],[139.84991,35.64978],[139.84991,35.6498]]],[[[139.84988,35.64944],[139.84991,35.64967],[139.8499,35.64949],[139.84983,35.64866],[139.84988,35.64944]]],[[[139.84977,35.64776],[139.84982,35.64852],[139.84967,35.64638],[139.84977,35.64776]]],[[[139.84965,35.64606],[139.84966,35.64624],[139.84966,35.6462],[139.84965,35.64606]]],[[[139.84949,35.64382],[139.84952,35.64426],[139.84955,35.64479],[139.84958,35.64521],[139.84952,35.64426],[139.84949,35.64382]]]]}}]}